{"type":"FeatureCollection","features":[{"type":"Feature","properties":{"name":"Alentejo","original_name":"Alentejo","is_region":true,"is_nuts2":true},"geometry":{"type":"Polygon","coordinates":[[[-8.946819659110574,37.95198514605181],[-8.92607239223939,37.90664857925232],[-8.85222516390122,37.87059933982541],[-8.868729804607682,37.74212942291741],[-8.852564268774072,37.68864511030636],[-8.876256283951745,37.5978888894816],[-8.84689652322504,37.53376543284401],[-8.856805268617908,37.43475005084004],[-8.75079141480791,37.352369774199154],[-8.630672007860554,37.33100028042106],[-8.577416704071663,37.35844906318661],[-8.529278232498168,37.33519010943091],[-8.451925535455784,37.32880166162873],[-8.396977832315951,37.34699120587265],[-8.359059432307765,37.38250248785229],[-8.209916384092857,37.29990171522365],[-8.056926792446276,37.27453437012943],[-7.952722682407433,37.32971681052911],[-7.934285125328375,37.35636078695637],[-7.877796593608848,37.36610346035252],[-7.712248166547436,37.44840174556641],[-7.608088475442026,37.445940655121014],[-7.552352243609097,37.47534491215206],[-7.481232572075588,37.48836582443694],[-7.391712864696426,37.64626813143394],[-7.375378750546243,37.7125921685103],[-7.252419206993522,37.81846144722956],[-7.193060375143184,37.94332884677813],[-6.969057122608808,37.98567922438678],[-6.877158706196166,38.194213506758274],[-6.885604105838231,38.24099764243759],[-6.921502596888447,38.264014465898256],[-7.062308230237373,38.23130281063585],[-7.0770591825388784,38.24299290171758],[-7.102168997507864,38.299899553313494],[-7.222557716520109,38.420322939597014],[-7.2458022656461,38.501088305568715],[-7.243538265517969,38.53008285926697],[-7.186957880672877,38.61603460270678],[-7.209097958307817,38.68733857225848],[-7.104140382856051,38.77054604842929],[-7.057533412320668,38.782715609941675],[-6.98708182840852,38.84539797095799],[-6.967541880634905,38.92016091412729],[-6.894382442887553,39.014767787576346],[-6.909310184036087,39.078166584764745],[-6.955513264034438,39.131446404514335],[-7.019999393535625,39.16121666466499],[-7.067355533221511,39.161410784021854],[-7.106827675497527,39.21064905377268],[-7.183703567478109,39.23569554398028],[-7.180317350955661,39.29957550885401],[-7.245573728494724,39.355973819028655],[-7.2553565787735845,39.38287290462077],[-7.237170115168266,39.44797213675712],[-7.247197160071872,39.48332161796438],[-7.452233015871828,39.6249438194395],[-7.497737143147802,39.69833436389192],[-7.544460650804289,39.70859441189395],[-7.6296635953816985,39.686930007132204],[-7.698022513668464,39.68906189397757],[-7.742438124447394,39.67008393988383],[-7.858089593791933,39.57544896874671],[-7.938132565417032,39.60783425666448],[-7.990702163611303,39.600513588375236],[-8.059820670869726,39.512215077691934],[-8.064726109739924,39.46040098919946],[-8.041052721667386,39.407944731112],[-8.077662226388954,39.390498084154224],[-8.104841523873363,39.33545878913693],[-8.170090944681567,39.32292675984239],[-8.246012748304482,39.23863583177632],[-8.33908325729686,39.195245948112884],[-8.395898709363628,39.12910018726772],[-8.397310561679518,39.083777456299394],[-8.345582087521985,39.04444234785905],[-8.300086348080487,38.979624573427024],[-8.297188240862575,38.95620491215051],[-8.329706895193736,38.91171324021648],[-8.52841870861733,38.846779344161774],[-8.571164073210133,38.813759391119326],[-8.601993534901938,38.7764739734735],[-8.589149094993678,38.71951547925751],[-8.692278040332381,38.6454805985758],[-8.71875375429469,38.576819998969505],[-8.782949904360784,38.54320594446987],[-8.79879030831963,38.51177110829975],[-8.899904028979392,38.55017967044114],[-8.946971634689913,38.53883498741634],[-8.96765293856872,38.51606564335729],[-8.959992814488173,38.464434411369886],[-8.864760057714356,38.37951722235697],[-8.833662439490839,38.25993617167676],[-8.848407106693417,38.14438435362861],[-8.946819659110574,37.95198514605181]]]}},{"type":"Feature","properties":{"name":"Algarve","original_name":"Algarve","is_region":true,"is_nuts2":true},"geometry":{"type":"Polygon","coordinates":[[[-9.05039264920686,37.037697586363336],[-9.037038834838663,36.99014418577838],[-8.947735921286396,36.948534440816935],[-8.810854486327143,37.019854757763],[-8.644689763477063,37.037781920225015],[-8.600811165123526,37.07596630719791],[-8.44783527526263,37.04112919063977],[-8.367181843911187,37.05194425332501],[-8.302566735657354,37.02673017139955],[-8.18665591065527,37.04389515136238],[-8.09101168373694,37.00768069185073],[-7.959853633160146,36.931207889297966],[-7.877120020432282,36.91706950753774],[-7.834834094924098,36.92725300222737],[-7.548611605623312,37.100601978702684],[-7.454595164963348,37.13190803129881],[-7.381153424974019,37.120698368286256],[-7.337139342989945,37.16187328412879],[-7.383871172381815,37.3152485183012],[-7.380532032826548,37.37410021217249],[-7.411042316966798,37.503659042375155],[-7.45031826087224,37.55251499960766],[-7.502677639584817,37.57238326452547],[-7.586776079545714,37.57297883968651],[-7.633457127884423,37.54708298537363],[-7.786475263745768,37.52943989149098],[-7.940542801655821,37.45780333026414],[-8.011167732790941,37.445999049884996],[-8.039777527291475,37.42996576196323],[-8.061099317615056,37.390796407000174],[-8.096674510223746,37.37386982340497],[-8.15522337357503,37.38233661164269],[-8.209250653597254,37.41679449308433],[-8.241999596565327,37.46078486738616],[-8.311144928680308,37.484047461479435],[-8.423189790572273,37.46715521104617],[-8.476355888859871,37.42879650704118],[-8.571344121174123,37.45692650559599],[-8.689979083551435,37.44651510242237],[-8.725758346076685,37.47263559786822],[-8.799319137841113,37.48785048240086],[-8.847906020039765,37.4671392440862],[-8.935157941844777,37.33172624877738],[-8.923286475632013,37.264754241003544],[-8.967672781642683,37.21811967407061],[-8.975149473763858,37.153822007723655],[-9.05039264920686,37.037697586363336]]]}},{"type":"Feature","properties":{"name":"Centro","original_name":"Centro","is_region":true,"is_nuts2":true},"geometry":{"type":"Polygon","coordinates":[[[-9.094469949191861,39.75829630059515],[-9.079111372041167,39.70782188330454],[-8.991462127474112,39.653974908039444],[-8.986265123139832,39.5987324512893],[-8.947023536178515,39.53990239359747],[-8.958380079560685,39.451130578092666],[-8.897807078832017,39.42046855846979],[-8.727480018189683,39.43400171707573],[-8.684093892415257,39.45169871413872],[-8.67218274300936,39.49018909210498],[-8.613843969617218,39.55484633312588],[-8.629331912465675,39.61377854611391],[-8.59284998782576,39.64632498947089],[-8.573848863619055,39.69936729247615],[-8.595308739339108,39.73048687101942],[-8.521894321689329,39.755708853572564],[-8.503810142751325,39.708994551100574],[-8.466791270866345,39.687241571136475],[-8.298054245084185,39.72391026151165],[-8.281481845823595,39.61229875491983],[-8.16174845237536,39.57093554838646],[-8.037067354751125,39.57337684822044],[-8.009250752122446,39.58725446640989],[-7.9953034328306005,39.61917959728619],[-7.935798883673478,39.61332226285158],[-7.887007900259675,39.57199039473313],[-7.871567994520255,39.51021110266796],[-7.8325791188502025,39.4927702852441],[-7.767801401105037,39.50615085150793],[-7.667774931927765,39.57629831638497],[-7.612767898723063,39.58182490282338],[-7.522778967522449,39.61851549037763],[-7.32614133218194,39.59625691757535],[-7.250193827648626,39.62087942392104],[-7.144949104321467,39.60837749046996],[-6.988842436871792,39.63042608627051],[-6.9511334144938,39.672284541516014],[-6.9133524514530995,39.79150204530366],[-6.847000334477068,39.85907851974884],[-6.805076210298235,40.01215572814257],[-6.8449331612993864,40.086879790068814],[-6.908557354807393,40.15007937569223],[-6.956007955223515,40.16170429370367],[-6.960563302537899,40.19048382471713],[-6.825609138845264,40.23310823119754],[-6.803430358456625,40.275964449012335],[-6.7472859560859595,40.30106275376618],[-6.72294428245563,40.35617639012166],[-6.73025714802507,40.38811806145957],[-6.787618134574879,40.44653161942607],[-6.736813777274944,40.50453749519579],[-6.746598752492462,40.56830849909603],[-6.763859396777516,40.58676561528802],[-6.734741406318006,40.66180036240758],[-6.766174965885237,40.74817578095401],[-6.742561259842839,40.83737293628746],[-6.754281310756768,40.899966977147265],[-6.890986999699077,41.06250160753684],[-6.966659333270586,41.08136395065104],[-7.023001604801112,41.061250338537114],[-7.056091418618487,41.01424542741849],[-7.104003312224687,41.01800611058702],[-7.13019342968028,41.057000369826035],[-7.190465989041571,41.081050293104084],[-7.405634977523347,41.05360433296036],[-7.435469323514454,41.027840176675994],[-7.431294114866914,40.96994649783318],[-7.470346561644385,40.943934391929254],[-7.488567254828937,40.909799171027885],[-7.6228128453045,40.919115811914416],[-7.650832378702043,40.974440224098146],[-7.718620537105646,41.008853873249095],[-7.8120275214743415,41.02355890334793],[-7.85902874289465,41.06927992914446],[-7.920476003404984,41.067071935615985],[-7.968742343844156,41.05518021745998],[-8.009961306439488,41.02336328684638],[-8.124869205829532,41.02355852974148],[-8.189904833720815,40.960165326954794],[-8.185852788373364,40.90873198055356],[-8.245398262350145,40.90832003849698],[-8.299057695363,40.88613150472642],[-8.314532190976589,40.85492125611949],[-8.303889808540342,40.82989509523072],[-8.396899593003122,40.844133444854776],[-8.466440552361519,40.824628302185225],[-8.46771897574178,40.90668551251546],[-8.532459339994006,40.93646845807578],[-8.564822783302287,41.00746100949528],[-8.613472016929386,41.0210569866324],[-8.682276794094852,41.003988910947925],[-8.713932044374006,40.972117495397434],[-8.82094048985502,40.654913530343904],[-8.81457470818349,40.62043381376531],[-8.88598389128404,40.38871354619919],[-8.966953774849953,40.195372629453935],[-8.930001756674224,40.1113108101381],[-9.094469949191861,39.75829630059515]]]}},{"type":"Feature","properties":{"name":"Lisboa","original_name":"Lisboa","is_region":true,"is_nuts2":true},"geometry":{"type":"MultiPolygon","coordinates":[[[[-9.508917603115377,38.86904338518195],[-9.556801202517558,38.79059329300037],[-9.540075984357303,38.692155320262756],[-9.476411514815988,38.65192468531265],[-9.296203864934549,38.62611416588455],[-9.242242636441311,38.533786576018],[-9.244228959433428,38.48598150013323],[-9.2797979209715,38.419356620425944],[-9.259159469953907,38.378927404402916],[-9.19489261857604,38.36419112917441],[-9.048676064196219,38.391497473102575],[-8.90520151304759,38.44931790867461],[-8.816679785596612,38.41753391675304],[-8.736757375132076,38.426104342277085],[-8.644552543471466,38.50330455140033],[-8.5943705510996,38.52126090963983],[-8.582042128446604,38.554951845709276],[-8.592501435428598,38.5918439228046],[-8.459302291944194,38.684478633636026],[-8.434346905105224,38.75406434459595],[-8.40580903029866,38.77785262155795],[-8.307822992979212,38.79803391800322],[-8.148030127850573,38.72687398658153],[-8.088792319163973,38.754841157933676],[-8.069076142408749,38.79197249887803],[-8.07299752897779,38.825544437336944],[-8.112190990402302,38.89302493572651],[-8.182791375139468,38.92445138407159],[-8.163119926427004,39.001128977154465],[-8.25271408035766,39.127206773603675],[-8.19223706761036,39.15092767416874],[-8.101885618129918,39.22602988274506],[-8.03684060585878,39.24662111139207],[-7.970788889910585,39.32860501326115],[-7.888192483758296,39.38868036550207],[-7.884589059253291,39.42467342328639],[-7.93474769231915,39.47283553472761],[-7.929504890890151,39.496112707524794],[-7.857419725715403,39.46516928063388],[-7.803326077666139,39.47918377409215],[-7.755897561687302,39.54717236288967],[-7.757273566632034,39.58977697940728],[-7.800394410201763,39.64919703360511],[-7.887586380952386,39.70825312382216],[-7.909587631380508,39.766509739305896],[-7.9316359565458265,39.782001716696314],[-8.034336911430223,39.79272373957113],[-8.075000751783557,39.78242430652797],[-8.105628033264578,39.75851365340486],[-8.13562157593081,39.66671868369861],[-8.171758597231271,39.68406947420922],[-8.174670594383684,39.77057515812362],[-8.213387699511674,39.81776753056579],[-8.337299524584171,39.848302382695266],[-8.369644324460285,39.84000076431988],[-8.40404209682631,39.80522201538687],[-8.428984559479524,39.86408604908751],[-8.47959727346452,39.88367746774564],[-8.550989001031247,39.86765989282893],[-8.587763550634701,39.83329512225316],[-8.654615908141455,39.83224837493066],[-8.72519014953051,39.79846016772904],[-8.739968987123712,39.74689476660457],[-8.725294742853709,39.681624335687395],[-8.759583642449426,39.64577062344362],[-8.74670028261403,39.58122057159077],[-8.82832887026626,39.52380729853413],[-8.808378385106979,39.573355885216934],[-8.849940998742946,39.61679727880437],[-8.868481328383767,39.69568459719187],[-8.940182607111076,39.76496995715439],[-9.0661757639975,39.781735346176],[-9.106219262023524,39.73357607587877],[-9.158403098609659,39.57534625484428],[-9.311776379403556,39.43620961976039],[-9.427956099782214,39.408672447153336],[-9.46325930271323,39.37698719674486],[-9.457540360313779,39.33324648053958],[-9.418396857966014,39.31220420117534],[-9.39562432411081,39.26586766529875],[-9.41617676723483,39.18580305564227],[-9.476463716909993,39.089918482890916],[-9.477870648200902,38.94873053663923],[-9.508917603115377,38.86904338518195]]],[[[-9.574180084375229,39.41738505229524],[-9.567710393806049,39.38784230228836],[-9.51480364772583,39.36283070180578],[-9.47435112640178,39.373547711985054],[-9.44413164638445,39.41418144116758],[-9.457052117698327,39.44590822412222],[-9.503230713960155,39.46595183438902],[-9.550552808536244,39.45323536666073],[-9.574180084375229,39.41738505229524]]]]}},{"type":"Feature","properties":{"name":"Norte","original_name":"Norte","is_region":true,"is_nuts2":true},"geometry":{"type":"Polygon","coordinates":[[[-8.938613776862478,41.76592580989135],[-8.930522213205832,41.716074091973965],[-8.854031223378481,41.54459869215973],[-8.838213106288757,41.468921253162804],[-8.84845846673788,41.41004211106138],[-8.802567254796397,41.31534648146511],[-8.769327854867248,41.16900510629341],[-8.719546210318496,41.087316746108144],[-8.712068064683402,40.95842837894406],[-8.688790481030605,40.92877853188789],[-8.656248756707377,40.9198759787167],[-8.637245915348906,40.8659101185096],[-8.608672453556862,40.839641337439915],[-8.599759489372376,40.76633092679764],[-8.566831168188726,40.73239686062481],[-8.514807805500986,40.71416142882846],[-8.374143996498164,40.736084817546505],[-8.24551721153645,40.72346794721308],[-8.185412094325748,40.79758408446092],[-8.110382674190474,40.805844954152946],[-8.057551603497233,40.829572332146476],[-8.044552189153547,40.87496834973135],[-8.062945868371058,40.92961239004144],[-8.008134317040764,40.92061889138206],[-7.889232045623905,40.94652838043327],[-7.846915391525473,40.91589653747314],[-7.77280465759078,40.89935569632861],[-7.770944415744021,40.86888868217857],[-7.715546271221358,40.814559222791424],[-7.595622135117343,40.78506863991741],[-7.53560688772265,40.81495101262105],[-7.483318916640889,40.773510989331044],[-7.4485845963202175,40.76764684605221],[-7.399665762969834,40.78760271706644],[-7.32774030927008,40.847244913244765],[-7.267369696623018,40.96062719606847],[-7.238415416094137,40.961860451200195],[-7.243941102967081,40.92708211351947],[-7.227179311956227,40.90368235614208],[-7.13178888711538,40.87821728545109],[-7.089602613549074,40.89472498535777],[-7.074242949455684,40.923898455511505],[-6.964142461464214,40.94487689864861],[-6.932019658150034,40.984265238256775],[-6.798389530479943,40.990203448709664],[-6.72796473138503,41.04672321719203],[-6.697694214249884,41.0896033210393],[-6.697545262082512,41.117914235720406],[-6.623657503170546,41.196194182475175],[-6.55805457533034,41.19519986161256],[-6.462500321655415,41.22906067785908],[-6.361657425247212,41.31125987324585],[-6.274459274725735,41.35458478933315],[-6.232037161076715,41.44667324508459],[-6.129547001942097,41.56908648223927],[-6.146894296028473,41.61441123897096],[-6.269307754024328,41.699425736416146],[-6.4313326657032555,41.72884498916358],[-6.486289584650582,41.71856661431338],[-6.496599545728778,41.74756416793818],[-6.456740754660834,41.88199569274222],[-6.487585017808444,41.914093112635406],[-6.500355887115134,41.9708505097957],[-6.573323738917032,42.011130882329596],[-6.691262864033053,41.98021835019126],[-6.737539718314627,42.022642167652144],[-6.81277065746017,42.03747421215892],[-6.898382564985945,41.98796000461407],[-6.966357122077835,42.01769707160287],[-7.034129035032292,41.999336535396075],[-7.14922308133098,42.03535194873102],[-7.234846450328805,41.99845920124252],[-7.249182612096255,41.91351079762473],[-7.399230534915002,41.890227615827484],[-7.431556096030857,41.9072580316565],[-7.533204749884231,41.90798527134901],[-7.699649562567824,41.952622705857145],[-7.824180596781366,41.926587806083894],[-7.854483538535657,41.964227100247456],[-7.913323325422269,41.971761004226806],[-8.10159534185407,41.856582353981224],[-8.140428711016964,41.91755388846587],[-8.037083347236123,41.99005907371887],[-8.024031237856715,42.05026770169936],[-8.05640481233329,42.10590323112474],[-8.12040106556378,42.12774306440299],[-8.149712285111592,42.181461867669164],[-8.18846925734431,42.19862572783184],[-8.273233246333197,42.17977286425685],[-8.362396616169843,42.13548898030979],[-8.539578736824463,42.12216724732424],[-8.679531787275582,42.07959158955076],[-8.727672806978527,42.02444414125666],[-8.782041529620727,42.00093452140317],[-8.808779108901279,41.96097399621694],[-8.860554430184175,41.94349542641313],[-8.928948869253563,41.88069290271033],[-8.938613776862478,41.76592580989135]]]}},{"type":"Feature","properties":{"name":"Região Autónoma da Madeira","original_name":"Região Autónoma da Madeira","is_region":true,"is_nuts2":true},"geometry":{"type":"MultiPolygon","coordinates":[[[[-15.937893779653733,30.1606852759024],[-15.91824996183613,30.115808954644905],[-15.888961904218279,30.09532839402314],[-15.834407632571466,30.096880134771133],[-15.80412166406702,30.126399667723074],[-15.813545998136151,30.17551706393466],[-15.862041236476559,30.204003790214923],[-15.913369401131451,30.19530150832855],[-15.937893779653733,30.1606852759024]]],[[[-16.10506119705371,30.040721129696998],[-16.089588123076386,29.998125720288062],[-16.053592029256336,29.98385106837201],[-15.983848089873199,29.996407011588506],[-15.963253635962287,30.02684611256718],[-15.977607110937472,30.06530397106776],[-16.034578569809216,30.104025821033936],[-16.085021803546866,30.087578083738332],[-16.10506119705371,30.040721129696998]]],[[[-16.46364301125634,33.035948356953924],[-16.419099011002462,32.96185112368096],[-16.35243939886568,32.958571747210314],[-16.317336108824644,33.00812267499779],[-16.256299323625896,33.011575228312196],[-16.228341788858906,33.034922635553045],[-16.23357860324703,33.141597309849644],[-16.2819575824713,33.17303080450425],[-16.396625225964684,33.143270322677736],[-16.46364301125634,33.035948356953924]]],[[[-16.602375237431453,32.591346054578494],[-16.526934958439604,32.389167236494735],[-16.47375943927776,32.35947603430273],[-16.42396725122363,32.37352845037571],[-16.41082351717221,32.41465055901906],[-16.434749006370993,32.45145370054177],[-16.439737343276764,32.50625974491449],[-16.500800427131377,32.61644242704215],[-16.563298756336355,32.63472757737142],[-16.602375237431453,32.591346054578494]]],[[[-17.31273896533558,32.835962560370604],[-17.31714003936877,32.80114602077003],[-17.24281504075594,32.69988028330464],[-17.12664712034347,32.637007957725565],[-16.95425570399435,32.58862800266061],[-16.80714316079707,32.60022455955399],[-16.70461994923066,32.69385143627057],[-16.639482653999167,32.68527875289122],[-16.615032714943382,32.699279414237644],[-16.601830238228242,32.73284939143898],[-16.619137550462305,32.764816482000796],[-16.661859212154223,32.79113927106601],[-16.775146973734596,32.80957154629364],[-16.890366075344215,32.88113856438394],[-17.05045698152484,32.8566850204625],[-17.095072870250284,32.871680832171435],[-17.138768501186583,32.910197422230276],[-17.19604262003197,32.915567657802555],[-17.232214374574895,32.90435741758871],[-17.31273896533558,32.835962560370604]]]]}},{"type":"Feature","properties":{"name":"Região Autónoma dos Açores","original_name":"Região Autónoma dos Açores","is_region":true,"is_nuts2":true},"geometry":{"type":"MultiPolygon","coordinates":[[[[-25.04261854780887,37.05827666174923],[-25.15472231529285,37.0567882468006],[-25.217703078837214,37.03174860297162],[-25.24150571279849,36.98992252409818],[-25.212732419904384,36.91770139953193],[-25.165425825857657,36.89544932964574],[-25.068107970668766,36.88368497379173],[-24.97654581593323,36.896067641583656],[-24.95853475879037,36.92647799232383],[-24.959447956244187,36.96609383225941],[-25.00479420207581,37.03559991325272],[-25.04261854780887,37.05827666174923]]],[[[-25.911199692673847,37.86436092660062],[-25.88272134934178,37.7977439940208],[-25.729801825123122,37.69907595882827],[-25.686955986894898,37.68772381478148],[-25.606845608521205,37.6988536944265],[-25.51661039691547,37.66180399683225],[-25.43754695847806,37.659241393915735],[-25.257375624797916,37.69650346160138],[-25.145561906985385,37.70184433686539],[-25.10335205246118,37.73231424307408],[-25.078305028777706,37.7989875521856],[-25.09835011998526,37.871193431934124],[-25.16344272913703,37.902388347055926],[-25.329127979532196,37.91065544540511],[-25.3878480444978,37.881989768118224],[-25.49542085572106,37.89224162415091],[-25.569777720186604,37.86301631404353],[-25.63839534334827,37.87823827653324],[-25.688611284393996,37.92544969361935],[-25.778889915975956,37.95555646596788],[-25.85658938813883,37.93569256191698],[-25.911199692673847,37.86436092660062]]],[[[-27.432312070566795,38.715114215960924],[-27.383712571268937,38.649716172772116],[-27.23231395036052,38.59427498857527],[-27.182077875956278,38.607031542252166],[-27.056661125097897,38.601443543448525],[-26.984793359274587,38.68679680219168],[-26.987953436748136,38.74800385511626],[-27.01965029355359,38.79155062382003],[-27.078425073902448,38.826367299256546],[-27.19498687015958,38.84538251621845],[-27.29472787193289,38.845764355184926],[-27.39603303587786,38.81765843131504],[-27.43495063978383,38.77094786296396],[-27.432312070566795,38.715114215960924]]],[[[-28.372063145295762,38.74098572300423],[-28.257927544526655,38.64443454545461],[-27.85933316447782,38.49494835038138],[-27.756473957549133,38.492374913855535],[-27.719536005092593,38.50882652044661],[-27.695611424542,38.54105327882032],[-27.714294661704542,38.5821193888922],[-27.76835343402891,38.613694577930545],[-28.021599918309835,38.720516659747176],[-28.238647879012795,38.78580227647119],[-28.342469585706976,38.796931660837245],[-28.372382070184344,38.770286028433844],[-28.372063145295762,38.74098572300423]]],[[[-28.12764221924484,39.0792914003015],[-28.127279672109875,39.052187535709116],[-28.058139745443512,38.9812800312445],[-27.946342364566714,38.966765249022544],[-27.906438347931804,38.98278007750984],[-27.892108450747624,39.007144708957036],[-27.907215461402373,39.06396735291354],[-27.97097605755154,39.12894717818806],[-28.03052594742237,39.14216595808762],[-28.077748965924243,39.13412608397981],[-28.12764221924484,39.0792914003015]]],[[[-28.89202756077657,38.598135305300296],[-28.870594063980178,38.55985808896563],[-28.816485997447586,38.529238309818695],[-28.779051675228462,38.481774991200446],[-28.59583476027993,38.47601980387213],[-28.557137350095335,38.42017551894559],[-28.45657973286389,38.37621295479586],[-28.304456398352443,38.366022509631975],[-28.235913801170103,38.33721066167305],[-28.149914680268704,38.361906611146175],[-28.05239533711669,38.35833152255238],[-27.995587356597742,38.37504070683423],[-27.97278401805226,38.403045534658915],[-27.98040814866976,38.444687311484834],[-28.031523558711367,38.48314275900358],[-28.150168551178787,38.5022034043633],[-28.37898491336065,38.602458914498094],[-28.480846821006985,38.605380452273586],[-28.535152454671774,38.59148730793508],[-28.584272198203227,38.645946286436306],[-28.696090774057453,38.688190241964556],[-28.861842537903197,38.642753731433054],[-28.89202756077657,38.598135305300296]]],[[[-31.186438420976028,39.69592266608125],[-31.163625275662003,39.63927735725873],[-31.107433411002212,39.625011627689254],[-31.04177493679213,39.658160944926415],[-31.02418061248374,39.701297657139634],[-31.048970740232445,39.752674099024496],[-31.111065709618522,39.7707435747133],[-31.172889318276496,39.74669510799271],[-31.186438420976028,39.69592266608125]]],[[[-31.32496963505025,39.46301412095092],[-31.310627493262388,39.36719242957571],[-31.280885305681917,39.3383526534969],[-31.23083077873763,39.32620579468409],[-31.15414389914958,39.33331690851744],[-31.121178111688785,39.35197659432824],[-31.066235841433514,39.46150202334031],[-31.119843633354858,39.53656597957558],[-31.206645887756387,39.56953455084851],[-31.275459540993342,39.55456547317215],[-31.32496963505025,39.46301412095092]]]]}}]}