{"type":"FeatureCollection","features":[{"type":"Feature","properties":{"name":"Alentejo","original_name":"Alentejo","is_region":true,"is_nuts2":true},"geometry":{"type":"Polygon","coordinates":[[[-9.003549220596982,37.94932765660664],[-8.978218120480689,37.884820109427594],[-8.911116321590487,37.85146693525315],[-8.926085938977247,37.75367256200528],[-8.91010014967527,37.698793555486866],[-8.93297627597517,37.59642302827678],[-8.907193766348634,37.531444591366245],[-8.911290539278387,37.42251320089286],[-8.871751317208865,37.37191907663512],[-8.768059295865076,37.30955153324715],[-8.645032200993569,37.285565100152056],[-8.578288721051054,37.299855061875],[-8.44931142086261,37.28388424413509],[-8.352672448864933,37.318384387816],[-8.218581217505394,37.2551638564902],[-8.048017482312686,37.23013128606752],[-7.729399014912366,37.39142374884561],[-7.682263920542315,37.40856396372242],[-7.595518776852368,37.402096665093396],[-7.448668803722213,37.4515695883041],[-7.407454409178262,37.49239446045938],[-7.390500266777936,37.55856609204717],[-7.332772559292319,37.6447921005244],[-7.322537419277856,37.69626691300232],[-7.202506844068757,37.796854825764335],[-7.144585346363055,37.900564053578194],[-6.965294779475781,37.937102501660306],[-6.906081643400394,37.973673164009845],[-6.826136958763973,38.17226611237963],[-6.820689220268703,38.23084930283314],[-6.849366895086354,38.27883255761457],[-6.928782676279872,38.31037696317774],[-7.038404688360602,38.29732507937681],[-7.166748487779867,38.435418695295326],[-7.186612473798977,38.518027359812066],[-7.130333672626141,38.608018186607744],[-7.146160332390532,38.67214454590782],[-7.018730190436352,38.74945202580675],[-6.934947978187545,38.82609176203298],[-6.914385595250828,38.90135978876072],[-6.837648694369464,39.00591024936643],[-6.852111862804764,39.088347789497675],[-6.91496142197282,39.16358529451028],[-7.028868042866028,39.207129912310606],[-7.060476649337985,39.24035596581321],[-7.117534769464534,39.26238254913577],[-7.129131969122359,39.32087023116306],[-7.192044102672025,39.37808854125044],[-7.177793377566635,39.45759245603175],[-7.188010133644137,39.49371857165387],[-7.400496442337313,39.65091839471168],[-7.463518935747929,39.73479119595057],[-7.547244569463298,39.75350914632577],[-7.704131782810754,39.73529956794972],[-7.781087513978715,39.70380587485979],[-7.85388939998747,39.636290601350886],[-7.964951435244159,39.654451677581775],[-8.026244995729565,39.63618224271579],[-8.114691898560611,39.52738459406183],[-8.125039244550301,39.46626466648626],[-8.113216908381078,39.42680341134284],[-8.143845512289403,39.385494848708426],[-8.230321616296346,39.34031645965043],[-8.28662336082325,39.27115548971567],[-8.379382298160582,39.22760277165266],[-8.448351854394978,39.148250661636055],[-8.451171431103202,39.0672391723349],[-8.378316176473795,38.99997702679719],[-8.360357873707843,38.968063743676936],[-8.374042612598894,38.949929548654566],[-8.55649765646056,38.88607258117982],[-8.604720865416542,38.85248630306465],[-8.657209556076685,38.78948579822469],[-8.657090184310972,38.7371864459319],[-8.745750342958008,38.666051929437074],[-8.77824480622729,38.59922166291945],[-8.822219974279713,38.575819989577944],[-8.885487981929769,38.59441877112493],[-8.94917039980462,38.58906716352316],[-9.014154069537287,38.54502332966408],[-9.026967892977208,38.5132561729835],[-9.020173139885113,38.46046870969082],[-8.917589853351004,38.36196615587144],[-8.890090988769602,38.235868998086694],[-8.927452208190397,38.09158976574919],[-8.991028856617602,38.001824481190326],[-9.003549220596982,37.94932765660664]]]}},{"type":"Feature","properties":{"name":"Algarve","original_name":"Algarve","is_region":true,"is_nuts2":true},"geometry":{"type":"Polygon","coordinates":[[[-9.107270709530594,37.041022503102944],[-9.090309785598716,36.97122448166075],[-8.969919989113919,36.90528691062783],[-8.903471771654115,36.91091736351842],[-8.791559227844857,36.973017111414755],[-8.621854292263194,36.996678846162716],[-8.577833096441903,37.02508581662295],[-8.306778858849205,36.98189015645667],[-8.19158485068799,36.99729694171131],[-7.986764734694113,36.89172454810249],[-7.871658969802547,36.87231620084359],[-7.800896726334254,36.89139792145462],[-7.467253810056992,37.08272005859856],[-7.403486377514054,37.073188971969586],[-7.343325002219506,37.08532855610542],[-7.293001083594138,37.12501064469318],[-7.280935457239592,37.17456475865075],[-7.326302195690018,37.32210110057775],[-7.324442494126823,37.380040006234395],[-7.358266063258212,37.52007199342975],[-7.4084376377235905,37.58284588539117],[-7.4894889974935905,37.61611764492238],[-7.599138137131383,37.6168643735085],[-7.8071975797641695,37.57129674416334],[-7.969325116664304,37.499883415223046],[-8.038962491486437,37.485181122488655],[-8.079564074501262,37.46196819276714],[-8.108576992692749,37.422101233166906],[-8.159328461046167,37.44093049114161],[-8.22687255037902,37.507837119079895],[-8.304689864095154,37.52872092385904],[-8.439180821958374,37.5106858421151],[-8.50391515956971,37.48421961466213],[-8.569496830602771,37.501868407394745],[-8.665226810784624,37.491737213016286],[-8.701807407560986,37.51338813338662],[-8.802320502497912,37.53275292867674],[-8.890757744438266,37.496560475545934],[-8.983138371260827,37.358842525745324],[-8.988488816463718,37.27330918787629],[-9.025737283857055,37.22336294726973],[-9.028546525898495,37.16987209961431],[-9.107270709530594,37.041022503102944]]]}},{"type":"Feature","properties":{"name":"Centro","original_name":"Centro","is_region":true,"is_nuts2":true},"geometry":{"type":"Polygon","coordinates":[[[-9.148706121746367,39.77514400974383],[-9.146307753805434,39.70354522995902],[-9.049351324474808,39.633445229843595],[-9.042572365376586,39.586933396904605],[-9.007266699080942,39.52877461417027],[-9.013315666718963,39.436227600652195],[-8.974952107035993,39.39504865102552],[-8.913881440717637,39.376441394487514],[-8.713610776989022,39.390332595589925],[-8.655055740513692,39.410760282849026],[-8.561990373382459,39.530774934391985],[-8.564806502901684,39.59917541851406],[-8.5282218615785,39.655071595419344],[-8.433310975983428,39.64221256370955],[-8.350031904439682,39.66537676567253],[-8.348170972018854,39.61338350149044],[-8.308892796369653,39.57068195317456],[-8.148211806018137,39.52196859314912],[-8.020582780516037,39.53024482356904],[-7.955722211193002,39.568115130914556],[-7.917995394943121,39.48303858508851],[-7.840044489191672,39.44817514368061],[-7.737815037079111,39.46759768897492],[-7.636785212573881,39.53308904430244],[-7.504756943465716,39.57565302497513],[-7.318616528910408,39.55166684116241],[-7.253592096149767,39.570374911892976],[-7.042720764767726,39.56977069943704],[-6.9621993602249415,39.590418431463185],[-6.911456836167962,39.62958248981325],[-6.8607881451047925,39.760862066597326],[-6.797937897402868,39.83186266801015],[-6.7486115859010285,39.99456400060043],[-6.748718654234385,40.0299731006143],[-6.773544860623834,40.0781781629784],[-6.852910893598386,40.171631358867515],[-6.783267424356699,40.201858996868495],[-6.752167526908165,40.24353982834575],[-6.7005028729021685,40.27370696852971],[-6.66492523345572,40.347994184768346],[-6.673040926217472,40.400768020944234],[-6.717063116638477,40.443278152189926],[-6.684034985195832,40.48083111552549],[-6.677075140755025,40.515037014792725],[-6.698927348244723,40.59535271587692],[-6.6754675089434645,40.66227318466445],[-6.707888103596006,40.761587502833265],[-6.681466355853889,40.843371489137425],[-6.699499603386594,40.917512588458465],[-6.850576705766837,41.09557794014031],[-6.965191757533459,41.12631524998728],[-7.019168370015544,41.11842002478905],[-7.077665438525806,41.08151035732975],[-7.115478719462708,41.10677073605676],[-7.198215484814633,41.12690064217792],[-7.410542418060116,41.10009787867901],[-7.482348300117081,41.058255952184794],[-7.497358337494672,40.99334439108721],[-7.520971999227106,40.96759977473019],[-7.573381510080793,40.961800538657705],[-7.625846613791345,41.016853979400686],[-7.769752554703398,41.069771167255894],[-7.817949921521571,41.10438557410307],[-7.934182143083849,41.11083520211882],[-8.0254630113645,41.07829529314666],[-8.160605133693005,41.05955079758445],[-8.22457040103362,41.00663604021998],[-8.251074932359781,40.95700025890295],[-8.326365263689922,40.92786057339283],[-8.365011301826938,40.88966563182545],[-8.399060371851688,40.88906948369322],[-8.42336517614593,40.93943709816161],[-8.479955958398378,40.97431083315994],[-8.5050979114693,41.02400142367409],[-8.545243023238282,41.0525194370824],[-8.617202558925937,41.065934348213325],[-8.711469039705175,41.04319211966207],[-8.770369529391328,40.986488097526085],[-8.878254789900012,40.66638664949188],[-8.876479859290457,40.616840573619214],[-8.943268941623048,40.39970643334606],[-9.023871343235893,40.20729587387635],[-9.02021928119284,40.153884024739824],[-8.993781457862417,40.10563631914085],[-9.148706121746367,39.77514400974383]]]}},{"type":"Feature","properties":{"name":"Lisboa","original_name":"Lisboa","is_region":true,"is_nuts2":true},"geometry":{"type":"Polygon","coordinates":[[[-9.632720083279999,39.41744586928277],[-9.60588437405142,39.35187852283434],[-9.517478628455846,39.31791332899073],[-9.455351099439092,39.26489676493097],[-9.47615124584553,39.19029464114134],[-9.536162434272631,39.08984153313025],[-9.542652880313609,38.93615688952776],[-9.613091439292301,38.800449964784775],[-9.59390375977576,38.67614241711773],[-9.518012797345012,38.61766507018618],[-9.319876182267347,38.57294035040274],[-9.29858594513932,38.50186126452932],[-9.336747126913373,38.42493726974286],[-9.333155475032845,38.38892956877834],[-9.276113968639686,38.33409534460147],[-9.191429897632345,38.319307683943535],[-9.0331710466822,38.34820636631094],[-8.910469819342602,38.39725749082925],[-8.808020542403902,38.372107535275795],[-8.694849612013375,38.39333810049862],[-8.638395807457961,38.444628620705814],[-8.549662398464948,38.49301345160181],[-8.52858364264673,38.52473929602757],[-8.52704868017613,38.57783427380645],[-8.417622417118897,38.6534475342696],[-8.379573343996375,38.73561710592287],[-8.343956993238747,38.749270310328015],[-8.15079679086197,38.6819602317458],[-8.061020963779416,38.70862499281474],[-8.01386213680301,38.7789506902502],[-8.013473942987254,38.830067255640664],[-8.065612689759503,38.91963564365625],[-8.115154069806838,38.952522994167204],[-8.110161470466021,39.021271292987464],[-8.168506693179223,39.098668054532155],[-8.075061569438647,39.179952074618946],[-7.995184877088157,39.215303873606686],[-7.924056525070545,39.299351241740936],[-7.854112607160456,39.348711747306695],[-7.8276412082917775,39.38502657982824],[-7.82423794650812,39.42260808805356],[-7.747866071236858,39.459150803976904],[-7.692355387576211,39.56396096277707],[-7.71521405685621,39.62953417159098],[-7.7834815390128105,39.70304213092802],[-7.837575204929655,39.73562447332065],[-7.861337901161058,39.79194512814231],[-7.9012691684839975,39.82044199314194],[-8.05292096206291,39.836989764736906],[-8.123125843102756,39.80892905164678],[-8.227994038947916,39.87458236182335],[-8.312792041163158,39.8915778878218],[-8.378728132467169,39.886678129355694],[-8.418154417627106,39.91607090254758],[-8.48124293130995,39.928625701319454],[-8.577797454620136,39.90764455559207],[-8.758348498622185,39.83819717743844],[-8.793285230906546,39.791523332609756],[-8.800875550602617,39.686959129249296],[-8.908019623381653,39.80253320823969],[-9.025134517544332,39.830613045142876],[-9.092121415726409,39.82204186636599],[-9.150174649646774,39.77220666285036],[-9.208735457876646,39.60010899219699],[-9.334069310222013,39.48111323697948],[-9.402775574651791,39.46375440488568],[-9.476250174112593,39.507877300894755],[-9.546344990476786,39.50557699209937],[-9.603990952735154,39.47477468669686],[-9.632720083279999,39.41744586928277]]]}},{"type":"Feature","properties":{"name":"Norte","original_name":"Norte","is_region":true,"is_nuts2":true},"geometry":{"type":"Polygon","coordinates":[[[-8.99711545784247,41.776948580970874],[-8.99036524375217,41.709739578835624],[-8.926251893467375,41.58422470873142],[-8.898270163295924,41.460944319843684],[-8.90393040589636,41.38902802307573],[-8.850224318762619,41.26666513906905],[-8.826364731440005,41.15565999911172],[-8.77817490761813,41.076581122839755],[-8.765425580932739,40.93489874807979],[-8.704952327363296,40.88387217488183],[-8.667125728481956,40.82122448082973],[-8.66244378707939,40.76489036592092],[-8.6401810589666,40.73138366509615],[-8.588045541945123,40.68846750144161],[-8.520945136123574,40.66943783071506],[-8.361582554771298,40.68862734203142],[-8.287617029693108,40.67389313141275],[-8.217699054652956,40.68375559681366],[-8.14737796278937,40.75390340082053],[-8.023702550494315,40.790597200593815],[-7.997439126824474,40.81926443134986],[-7.985526125770107,40.87818747897975],[-7.916861924507046,40.89183438221837],[-7.8318406058727055,40.86613712042747],[-7.78142608638349,40.79857377137225],[-7.7426295904879705,40.77453999967933],[-7.59990328438154,40.740219692003286],[-7.5381721109777695,40.7498970838879],[-7.443557209741664,40.72284243231372],[-7.3677981890499975,40.74817166764856],[-7.2875227465132175,40.812194635851746],[-7.259166739580525,40.86496790180594],[-7.174558774751085,40.83656833563213],[-7.099048420641866,40.83760157304869],[-7.0327347432417815,40.878489451809195],[-6.930968665197792,40.90754449702256],[-6.893559673476209,40.93882242830732],[-6.762036344802881,40.95329070868886],[-6.687879255618804,41.01112309277035],[-6.635197225882095,41.101909943602024],[-6.587834040949487,41.14954814814837],[-6.5215209575284305,41.15729296703146],[-6.408069153405596,41.201841825633714],[-6.314905846368076,41.28064234458887],[-6.2312992515401175,41.32341142028116],[-6.069945309916902,41.56331043531011],[-6.0967913660082695,41.63929703087826],[-6.216952302656739,41.72756892360787],[-6.3174184631853665,41.7619289188725],[-6.422099373526077,41.77327885274719],[-6.397948426541774,41.89230302346126],[-6.451276308592787,41.99713694158659],[-6.53349048983521,42.04779756977929],[-6.603249897313404,42.05680790560427],[-6.664867386264456,42.03721070156632],[-6.726542325630481,42.068396937002014],[-6.8141951012092195,42.082427089126824],[-6.914504957632896,42.052918117840996],[-7.034085631100017,42.05443106789571],[-7.156998100227703,42.07994557677582],[-7.268474891029769,42.04000341335866],[-7.298375389121092,42.00458192156072],[-7.309663515575778,41.94690797362738],[-7.326867009373147,41.93931846135118],[-7.518226775000114,41.95891457658994],[-7.676592841179854,41.99580990366051],[-7.795960875568629,41.985635652327176],[-7.8669128529100245,42.01534461290064],[-7.964114857930084,42.006105987421925],[-7.96748163991297,42.07067624742042],[-8.001581228325746,42.12808572136109],[-8.070228777712781,42.16458308627057],[-8.11610845560096,42.22045070589081],[-8.17817090186216,42.242939410458796],[-8.248093902425591,42.23647888864942],[-8.419142993197836,42.170420980960195],[-8.558045288612162,42.16499724523476],[-8.719225999381367,42.113568172224106],[-8.982696789805042,41.901212922451734],[-8.99711545784247,41.776948580970874]]]}},{"type":"Feature","properties":{"name":"Região Autónoma da Madeira","original_name":"Região Autónoma da Madeira","is_region":true,"is_nuts2":true},"geometry":{"type":"MultiPolygon","coordinates":[[[[-16.157685803885848,30.031480134199313],[-16.144437320691427,29.989569920545968],[-16.094816613237242,29.94701411856268],[-15.978385820475102,29.948566640780523],[-15.92517444728654,29.98706114354938],[-15.914715164724038,30.0565023768219],[-15.833812760738775,30.050212690560862],[-15.768466023070763,30.088262349216922],[-15.75039970754528,30.129630671972443],[-15.759677253570759,30.183156499862356],[-15.813797787356156,30.234938714911117],[-15.874243081730835,30.250693979954413],[-15.916238858591848,30.243871264743536],[-15.97926877387465,30.196965136041808],[-15.987336295678347,30.136714285730033],[-16.07180888606641,30.14609563514341],[-16.119733560246907,30.121658865727493],[-16.157685803885848,30.031480134199313]]],[[[-16.517301367655026,33.0408538259831],[-16.491676079871382,32.96818231045049],[-16.451646054768077,32.926132807304995],[-16.406422032591617,32.90856631341031],[-16.34225733220225,32.912576624510265],[-16.2816329948499,32.96233253161853],[-16.217410782640602,32.97839595038598],[-16.179183604684408,33.0169558971421],[-16.183156906137505,33.15707020308253],[-16.205655402635117,33.18835882043126],[-16.258016455837126,33.2151098042234],[-16.403724158063945,33.189543674966856],[-16.454703766957437,33.15968650888126],[-16.517301367655026,33.0408538259831]]],[[[-17.359563101531627,32.85774175735522],[-17.37245728323585,32.80571881833804],[-17.33028885039185,32.71882474840328],[-17.273001846623888,32.662784049667685],[-17.15855415685001,32.60077693485953],[-16.962167194347682,32.54415960016161],[-16.8377069068962,32.54697886349417],[-16.765752125188314,32.56932102001075],[-16.685564765240535,32.63985924621077],[-16.639579085133928,32.6385350857957],[-16.65514137649117,32.59646702435952],[-16.640003722007496,32.513821264090375],[-16.604332433917154,32.46732061787613],[-16.566580000304914,32.35804712479206],[-16.525998736638698,32.328581072799324],[-16.45758391189042,32.31393141972896],[-16.399888792300484,32.331560304309214],[-16.363471619824818,32.37279179815287],[-16.358806657931346,32.42433272103558],[-16.406380102192937,32.56296906443087],[-16.468464105940754,32.65417937813192],[-16.560997693877493,32.68125227913533],[-16.54839665412748,32.734006290691404],[-16.557952908676217,32.76893808251404],[-16.638683330689556,32.83142264767584],[-16.758697454115698,32.85220955903938],[-16.876942480972474,32.924668421072255],[-17.045759443824004,32.9070355458275],[-17.15839203164978,32.96021132342957],[-17.26403295904238,32.94053149869521],[-17.359563101531627,32.85774175735522]]]]}},{"type":"Feature","properties":{"name":"Região Autónoma dos Açores","original_name":"Região Autónoma dos Açores","is_region":true,"is_nuts2":true},"geometry":{"type":"MultiPolygon","coordinates":[[[[-25.024837771516175,37.10094251094695],[-25.16400906778043,37.10112951453341],[-25.269053188260436,37.0538453630879],[-25.29760593139452,36.976326571446855],[-25.257523881762857,36.89053976671164],[-25.192844710026996,36.854600846382326],[-25.06945551978142,36.83874553878191],[-24.979206347842105,36.84314452391377],[-24.9240807669252,36.87583495507132],[-24.900915539625,36.934969204276875],[-24.910328784189524,36.99232338528789],[-24.973577111655427,37.07578375771922],[-25.024837771516175,37.10094251094695]]],[[[-25.967825283295383,37.86695747131982],[-25.924806257181604,37.767493445870265],[-25.78059345417333,37.67178823985516],[-25.68800399353301,37.64277401597097],[-25.61039772662662,37.65298591365946],[-25.523563803550655,37.61718679075166],[-25.43144840353521,37.61454496485576],[-25.121512318967497,37.66111384114879],[-25.04697462930262,37.71987013769193],[-25.02039075913467,37.80915185444728],[-25.04947068220843,37.89428113270762],[-25.130279960672993,37.94115423755266],[-25.318956960578582,37.95666359316152],[-25.421952224572085,37.92201569753085],[-25.501594141535563,37.93693381177183],[-25.573991198500558,37.912056962378315],[-25.658397858776848,37.96357490915003],[-25.77647705675278,38.00047427123332],[-25.891964930284967,37.97095719186879],[-25.940845395938275,37.92283542282125],[-25.967825283295383,37.86695747131982]]],[[[-27.134793010005303,38.87840757807902],[-27.302148015717417,38.890356485706555],[-27.429958190127696,38.854038350092935],[-27.47907231929984,38.8098627720203],[-27.49243299990142,38.77461994496297],[-27.48811385557839,38.70306481708395],[-27.467560835369458,38.660547849032014],[-27.385836654340476,38.59647663086204],[-27.259837487599885,38.55295818636839],[-27.06077465839168,38.55468330131805],[-26.999126805079374,38.57730042906976],[-26.928392547930432,38.677662580018094],[-26.9323487283068,38.75990347687115],[-26.97738271030188,38.8221618258118],[-27.034105272343137,38.85809801311252],[-27.134793010005303,38.87840757807902]]],[[[-28.949285827166324,38.596444952892554],[-28.921829894837348,38.53787057133302],[-28.804897966920297,38.44162152780451],[-28.628847359965018,38.42579155636519],[-28.597435549079332,38.388165320961754],[-28.487766805929656,38.33683861359331],[-28.334292471476342,38.322820512034184],[-28.255648720516376,38.29299481291949],[-27.980759958615916,38.32997356315796],[-27.932427170990067,38.36312964771147],[-27.916441584787197,38.39454879529478],[-27.9185425937952,38.44510294826347],[-27.936849909818168,38.475600058806954],[-27.849082958723983,38.44511851922583],[-27.739628131271733,38.44938689724975],[-27.654305533562088,38.500862894492926],[-27.6376490518139,38.55236498835285],[-27.662108108886176,38.60397184176936],[-27.704099414789443,38.63388577657359],[-27.97350575284388,38.753053701997196],[-28.32362351729893,38.84642651955198],[-28.40493633489425,38.81495861853593],[-28.43263075211738,38.74949608191241],[-28.40744083062317,38.697734582987025],[-28.320559243722148,38.632782477706776],[-28.408920689243914,38.65125246068177],[-28.5058878754772,38.647068952195745],[-28.62295901003094,38.715671225209654],[-28.719430765586196,38.73395661482442],[-28.908731771100513,38.671637749224715],[-28.937560004395184,38.643056090637394],[-28.949285827166324,38.596444952892554]]],[[[-28.183883821779744,39.09024887272553],[-28.173169044045864,39.02217497697945],[-28.080815045549,38.939915148290545],[-27.984117157195822,38.919302495440824],[-27.926403880249293,38.92455804121121],[-27.863396388933676,38.95274756128018],[-27.835982292078796,38.99719757441157],[-27.83563853736616,39.04404447099211],[-27.868159102291987,39.10086747522381],[-27.92669868936896,39.16042578219499],[-27.981737713569604,39.179574645489886],[-28.105588863499527,39.17357021639916],[-28.183883821779744,39.09024887272553]]],[[[-31.381185054380442,39.42847980554824],[-31.36466030176216,39.35058280798929],[-31.300074499981225,39.29483585409268],[-31.179212995909214,39.28349225701096],[-31.087064374618503,39.31373873541713],[-31.03122847063964,39.38723102065874],[-31.008115588534597,39.45851133347573],[-31.02233573576172,39.5033491408359],[-31.09872926946611,39.58042287261038],[-31.030054274545385,39.60569673744512],[-30.976800718826667,39.657295985305744],[-30.96582537779869,39.703701343383216],[-30.993659506232866,39.77232334128214],[-31.088293990589577,39.81489461204369],[-31.163654092901126,39.80927465102512],[-31.204167712154163,39.78895994425447],[-31.24485044389917,39.713265171382034],[-31.234575078580555,39.646145565308935],[-31.21195606845462,39.61414467964911],[-31.27657178820327,39.60537668840479],[-31.328978599275626,39.57604828936832],[-31.371791831252995,39.50770417231207],[-31.381185054380442,39.42847980554824]]]]}}]}