{"type":"FeatureCollection","features":[{"type":"Feature","properties":{"name":"Alentejo","original_name":"Alentejo","is_region":true,"is_nuts2":true},"geometry":{"type":"Polygon","coordinates":[[[-9.116995880860571,37.94393036863828],[-9.091063698060978,37.85754565798799],[-9.036984743732809,37.80404005976091],[-9.046371156987018,37.59257591551685],[-9.015545957922253,37.386428244689824],[-8.95014455359217,37.30708796927645],[-8.802536533044593,37.223907640886],[-8.637135258288847,37.19554442714229],[-8.362388443071735,37.20948214819509],[-8.030230745961871,37.141323062617595],[-7.685464771530868,37.30795788150207],[-7.383637653188281,37.377950151597645],[-7.302546165962729,37.4584003577128],[-7.217835838491418,37.65254437437646],[-7.06077285124555,37.82985914443978],[-6.9234979151789355,37.85343846524522],[-6.810282603112681,37.92487717140654],[-6.714262749994768,38.15181023284418],[-6.7098101532867345,38.25329574615168],[-6.76189456374502,38.33693661270154],[-6.875803944473672,38.3940572033448],[-6.996001183717995,38.407652937897716],[-7.066742639686113,38.48695263212662],[-7.003228627882307,38.650737617305744],[-6.8527736562248895,38.75867396734364],[-6.73719609789989,38.955048711633864],[-6.719620671807064,39.022496473625154],[-6.7447045526035385,39.122126893664515],[-6.8186209695065365,39.21632729001242],[-7.006343805173116,39.32012029188302],[-7.0698532385828114,39.40719165044848],[-7.066614684036893,39.49519364114585],[-7.105791239700057,39.56269064890266],[-7.4399592653364435,39.827429105915726],[-7.7365224683443685,39.82171656737355],[-7.896469498591039,39.738342149813796],[-8.09743994016558,39.70748747313957],[-8.225436400467906,39.55559606559294],[-8.241160906630473,39.45920832427182],[-8.55334346668113,39.186481477203216],[-8.575456791604156,39.099265507408006],[-8.540406262144598,39.005686312121696],[-8.715656255721763,38.88815707399444],[-8.856553205250608,38.69712147396426],[-9.025674599609337,38.65994447807534],[-9.115560772161954,38.587461185964884],[-9.141102276362666,38.52390387688759],[-9.12840624875385,38.43043425153983],[-9.021228233462562,38.32160110470192],[-9.004655902378454,38.236501805199715],[-9.116995880860571,37.94393036863828]]]}},{"type":"Feature","properties":{"name":"Algarve","original_name":"Algarve","is_region":true,"is_nuts2":true},"geometry":{"type":"Polygon","coordinates":[[[-9.222171973905521,37.023238947882554],[-9.15537460678129,36.8939562557191],[-8.99176486584839,36.81707094453336],[-8.902022657873907,36.817440540788674],[-8.75485117174133,36.885131304479735],[-8.55290067250257,36.92496922339005],[-8.20389371951793,36.90168461910096],[-8.040503094975698,36.812739508593864],[-7.860755699213449,36.782808865788],[-7.733117493594624,36.819658882928564],[-7.449336300680764,36.98796609754802],[-7.326290643249785,36.99310361203398],[-7.2453435147891225,37.030453137246305],[-7.176871094471027,37.11535126854368],[-7.16854127101002,37.18283810340481],[-7.252643950794331,37.55282740326602],[-7.324573764392229,37.64346304413379],[-7.430597074066112,37.6958239390454],[-7.575924474037091,37.70894998723011],[-7.764797422937081,37.67689256135524],[-8.11627569017961,37.55167763426983],[-8.291756686916306,37.61806680906408],[-8.509091231335466,37.5838148699347],[-8.808334816385816,37.622557562345754],[-8.92149004320905,37.59197417997227],[-9.002229157307607,37.526458323640554],[-9.086430656070581,37.39558927700227],[-9.222171973905521,37.023238947882554]]]}},{"type":"Feature","properties":{"name":"Centro","original_name":"Centro","is_region":true,"is_nuts2":true},"geometry":{"type":"Polygon","coordinates":[[[-9.262409042809864,39.79501081568937],[-9.267909415111134,39.70030396070813],[-9.160375447870775,39.583610517031815],[-9.104466392362387,39.37528788113725],[-9.046338091971563,39.324046195498],[-8.924316615783919,39.286874446577066],[-8.616702242719441,39.32262443056774],[-8.522987820985167,39.39663874927821],[-8.441028175722234,39.53393768438494],[-8.217936818579613,39.44293779530205],[-8.038951094193644,39.43743648906256],[-7.899864842467366,39.36701700650133],[-7.808864600920226,39.35793855655691],[-7.498369601578868,39.47734606092491],[-7.3035953281891635,39.46248529268042],[-6.9090049136235105,39.5103850962829],[-6.807520629033498,39.58864422958816],[-6.677343286961557,39.824032441670596],[-6.628948457896304,40.012417061917866],[-6.688978948512517,40.14868672096851],[-6.582807217623293,40.248576132126296],[-6.548929401045035,40.33154315978668],[-6.575571151721527,40.919265842989624],[-6.769633894416199,41.16168815480937],[-6.962249418055701,41.21621777142271],[-7.393475402843185,41.19756593252328],[-7.5249921094919925,41.1556556689674],[-7.58578941944809,41.10306074332008],[-7.802328825827156,41.19723949807433],[-7.961649039867421,41.19835690210117],[-8.193708138689262,41.14923270924604],[-8.36481058327389,41.02482948668913],[-8.435393325779598,41.10065611781916],[-8.535228984125139,41.14705480870084],[-8.769958212688927,41.12157630561947],[-8.883101615065987,41.01563159859737],[-9.139383955298383,40.22482383403848],[-9.119030845201163,40.10206501839634],[-9.262409042809864,39.79501081568937]]]}},{"type":"Feature","properties":{"name":"Lisboa","original_name":"Lisboa","is_region":true,"is_nuts2":true},"geometry":{"type":"Polygon","coordinates":[[[-9.747313630390785,39.43650422164152],[-9.699453052988721,39.298343434812026],[-9.58218991322879,39.23704487703844],[-9.640097292935687,39.13549731791927],[-9.653720963051125,38.96391508307913],[-9.725718703811536,38.82008167240394],[-9.70148691421103,38.64404246607982],[-9.601577815493732,38.55034622265494],[-9.4268126361768,38.509513122393926],[-9.450450919221183,38.390551113157734],[-9.397572737256082,38.2972154664414],[-9.329253478459648,38.25441859269929],[-9.184518014767676,38.22954045472182],[-8.905259666262591,38.294367600329714],[-8.686628404055524,38.29600640061534],[-8.46035164241766,38.43646720405311],[-8.409879358037612,38.535235449336824],[-8.30642546236958,38.619232454784274],[-8.105914608705215,38.59456632071629],[-7.980625403514285,38.64421634552584],[-7.903494774493252,38.75282896665945],[-7.8944144223344335,38.82114767404004],[-7.988908057900704,38.987117607267095],[-8.00886520302351,39.100316063191954],[-7.911984346581864,39.15262533837325],[-7.655657208615721,39.40424164183054],[-7.575728935138537,39.56202285879383],[-7.613593118399475,39.67387365864573],[-7.840433348916306,39.897298658872586],[-8.099940828860168,39.92058275676065],[-8.48454047787261,40.01852210418113],[-8.752735694825537,39.945393453341374],[-8.860061024594739,39.884243379872444],[-9.011934075078033,39.91997208021727],[-9.14410414043888,39.90263754059617],[-9.241099470530367,39.833798248520296],[-9.314195747744606,39.64441440266568],[-9.392845539018827,39.5773160595114],[-9.492939800799421,39.60061311146345],[-9.62207370743159,39.57743923149812],[-9.709896103185562,39.51314487682712],[-9.747313630390785,39.43650422164152]]]}},{"type":"Feature","properties":{"name":"Norte","original_name":"Norte","is_region":true,"is_nuts2":true},"geometry":{"type":"Polygon","coordinates":[[[-9.115630520269981,41.71721014804137],[-9.035459452604512,41.53129148749494],[-9.022555630045098,41.37934025184518],[-8.940368722763663,41.12888543294173],[-8.896741911566282,41.06267715070535],[-8.87762996222545,40.904910021495176],[-8.732895417600297,40.675280285376175],[-8.649566642917854,40.61159721582995],[-8.533196194324743,40.57998974498017],[-8.206639345451569,40.590580789174965],[-7.897921970797162,40.77060909568034],[-7.749707815481435,40.68079852192495],[-7.413856746151643,40.635129270281126],[-7.203038644761196,40.749512967202],[-7.062495698681706,40.75203289523447],[-6.70606021914961,40.87392867265369],[-6.622193183289476,40.924794298239405],[-6.518333164909976,41.063664557611425],[-6.335929832018594,41.13015977740934],[-6.145102339749268,41.26101690588509],[-5.950773976131158,41.551666328275864],[-5.996468985161774,41.68900279677596],[-6.150766249880154,41.802737380443894],[-6.2683143237574726,41.84458673913156],[-6.352995438369903,42.0496469603467],[-6.482084830757026,42.129236497356324],[-6.769025364201464,42.169619471976844],[-7.172580382105818,42.16913131188613],[-7.32756199394265,42.121694335614954],[-7.40830765556345,42.04142738022647],[-7.764985938065858,42.08086600752942],[-7.845807203007329,42.1039004202127],[-8.034624628649764,42.28715635570521],[-8.205062792720433,42.33411248903041],[-8.798742526157238,42.18148002464527],[-9.090296319689411,41.94217757419878],[-9.115630520269981,41.71721014804137]]]}},{"type":"Feature","properties":{"name":"Região Autónoma da Madeira","original_name":"Região Autónoma da Madeira","is_region":true,"is_nuts2":true},"geometry":{"type":"MultiPolygon","coordinates":[[[[-16.261469654352382,30.02895364034232],[-16.235436408169964,29.947145008880945],[-16.172974373009783,29.88287756456796],[-15.966357897247335,29.856870330889052],[-15.698531901517839,30.02087691486357],[-15.651885651063242,30.100135976033034],[-15.651643801808158,30.1794980660235],[-15.679396065032403,30.2445046197758],[-15.766108121596544,30.314878531388832],[-15.935961792567234,30.33213469194336],[-16.194233327469515,30.18440809941603],[-16.261469654352382,30.02895364034232]]],[[[-17.025587314869014,33.007520723689396],[-17.106927735063625,33.04356933059679],[-17.244418315596103,33.04548397558143],[-17.42401866948604,32.93606150202991],[-17.478956834642368,32.79718335263007],[-17.363641419744386,32.609760109336506],[-17.209978440426625,32.52263004186142],[-17.010624293906286,32.46159346353424],[-16.73807352686855,32.4795548155651],[-16.65305316375056,32.3059274986506],[-16.525909705703363,32.231291958628226],[-16.3832776974543,32.23796180338734],[-16.292912178763334,32.297400755784025],[-16.24981898070345,32.407619886034055],[-16.286077886567764,32.54398984481946],[-16.481861168301016,32.83694018975482],[-16.302658402430055,32.82902277272305],[-16.100480467036526,32.951379028351376],[-16.065448909325305,33.080420297694346],[-16.082260861481554,33.18795658387862],[-16.12574596492198,33.24850752269179],[-16.27143909525144,33.30764156901036],[-16.510123800642894,33.24065002069165],[-16.623012063567263,33.066106113935064],[-16.57283165729614,32.905344793909],[-16.850056467124407,33.0117240070371],[-17.025587314869014,33.007520723689396]]]]}},{"type":"Feature","properties":{"name":"Região Autónoma dos Açores","original_name":"Região Autónoma dos Açores","is_region":true,"is_nuts2":true},"geometry":{"type":"MultiPolygon","coordinates":[[[[-25.40752159127866,37.010492791577605],[-25.360750604559414,36.853795667288],[-25.188926364104713,36.76191300277543],[-24.985182060917502,36.74970276127666],[-24.899610725188037,36.77459994780766],[-24.833604051575826,36.82248895856229],[-24.79011227202269,36.91841227635781],[-24.805457541044007,37.0250443266803],[-24.86364638937961,37.10978537476091],[-25.006824847710515,37.18974224477838],[-25.280993296994886,37.16079744372952],[-25.378382976189684,37.08468344491005],[-25.40752159127866,37.010492791577605]]],[[[-25.869852947441416,38.075826021834224],[-25.993214151494897,38.018591173952686],[-26.069563229793285,37.920506766561296],[-26.08240907049455,37.85202676936677],[-26.00887117046394,37.70694606094577],[-25.78636791556623,37.56995787209256],[-25.46383616580562,37.52482857513025],[-25.161122571784677,37.55892990260268],[-25.001129444447162,37.619795793837156],[-24.917913259397725,37.73809734294139],[-24.930048584247977,37.90213957327929],[-24.98374930011927,37.97429902951836],[-25.066781198907673,38.01813961865149],[-25.325758943480817,38.04645064567011],[-25.562105557931233,38.01788415993086],[-25.72632061449847,38.085268070352214],[-25.869852947441416,38.075826021834224]]],[[[-29.064169382022715,38.60598668651469],[-29.014728403175454,38.484922762519446],[-28.856505118014447,38.36129788733798],[-28.69291593795339,38.33846507781435],[-28.530658013195236,38.25344454736219],[-28.224104168586106,38.20263165264129],[-27.947884022679148,38.24413377771388],[-27.816027973713986,38.34487837646456],[-27.63692784921825,38.38919283593906],[-27.536364716606144,38.486343231698676],[-27.52280010834502,38.5569781037624],[-27.250120478971688,38.460101317222076],[-26.956365799549225,38.49036968603429],[-26.829612749700626,38.624843738934175],[-26.813516224323145,38.74882721684267],[-26.881218479079624,38.87289041192265],[-26.97422977466698,38.934892252527085],[-27.287121896778434,38.98186686217097],[-27.431030039332633,38.95663790046635],[-27.554192394120555,38.88298500762167],[-27.60741530356177,38.781880220513926],[-27.599745009514358,38.68239938777179],[-27.921961758632694,38.83340814072249],[-27.75147144462171,38.91985169612435],[-27.723251477450095,39.06574242770844],[-27.854785225248136,39.23102216201783],[-28.063564246523672,39.27569970558532],[-28.177306148552336,39.24500825921006],[-28.280996094416906,39.14686148650798],[-28.30200538059843,39.04313851280041],[-28.23355975090043,38.92752389083457],[-28.42295075039127,38.91639668599876],[-28.492385969864987,38.87368424730842],[-28.54481175838072,38.7843009803605],[-28.72395223822028,38.823818674450806],[-28.95618119971634,38.75585174315296],[-29.044131450607825,38.67747618594488],[-29.064169382022715,38.60598668651469]]],[[[-30.92745320917061,39.55578513851104],[-30.850811177167884,39.691954066763415],[-30.899168473588514,39.825356010903796],[-31.070923070095702,39.90380372878469],[-31.24937202454859,39.8760169083805],[-31.317682094362393,39.82333896116893],[-31.359588780538832,39.67347446637292],[-31.484377398717005,39.531331949180164],[-31.501119400526232,39.43885371238677],[-31.474166490410973,39.32030443717686],[-31.389995842936727,39.232830322682545],[-31.277603399097575,39.19495548469243],[-31.03819839066723,39.22887780124443],[-30.900489071791945,39.40777471185891],[-30.893881127651927,39.484803454061684],[-30.92745320917061,39.55578513851104]]]]}}]}