{"type":"FeatureCollection","features":[{"type":"Feature","properties":{"name":"Alentejo","original_name":"Alentejo","is_region":true,"is_nuts2":true},"geometry":{"type":"Polygon","coordinates":[[[-6.385990439001674,38.34323529875869],[-6.580685177220083,38.57327065891165],[-6.381996291624098,38.94319317446096],[-6.421866635898787,39.22287355306242],[-6.900589889003298,39.79098503270453],[-7.188470155577217,40.02608561756161],[-7.418225139615935,40.10330388668701],[-8.217706737116268,39.96667256815583],[-8.480330940932594,39.76746180779429],[-9.056819729994562,38.9744123060098],[-9.461649875561983,38.63702248783638],[-9.485970006395267,38.47156259086022],[-9.36122082628177,38.21189635830256],[-9.457366301758475,37.92796598066485],[-9.33476038674292,37.29490320966725],[-9.235344197504244,37.15641956872012],[-8.897151672554228,36.96484543790581],[-7.876320023700422,36.89544727141697],[-7.18931052704419,37.156877612581724],[-6.845705063562268,37.5751530838543],[-6.530278353715418,37.770155880676576],[-6.363406392866349,38.155510139652456],[-6.385990439001674,38.34323529875869]]]}},{"type":"Feature","properties":{"name":"Algarve","original_name":"Algarve","is_region":true,"is_nuts2":true},"geometry":{"type":"Polygon","coordinates":[[[-9.559424237921439,37.020373932666644],[-9.460201584569038,36.766682635910776],[-9.166971537672291,36.579436139732145],[-8.945157662870432,36.54385295723691],[-8.462548697076553,36.637821979347464],[-7.828195269738557,36.514281136125604],[-7.0243858490277375,36.826515976709196],[-6.8527670645764704,37.038365540115045],[-6.831212972848401,37.20701943137896],[-6.935221458837724,37.65052794972708],[-7.072157633812774,37.82495556910295],[-7.578174644694868,37.97873687239768],[-8.07389718268814,37.865360795997255],[-8.811735262969654,37.89243746863368],[-9.12990174246161,37.806802165740784],[-9.396915479280018,37.50528769452521],[-9.559424237921439,37.020373932666644]]]}},{"type":"Feature","properties":{"name":"Centro","original_name":"Centro","is_region":true,"is_nuts2":true},"geometry":{"type":"Polygon","coordinates":[[[-9.606456855838891,39.84754798174893],[-9.600696128034105,39.61437115714304],[-9.405052270632728,39.23855891081793],[-9.063784725273583,39.033841641811584],[-8.624013628142722,39.03729996872627],[-8.299308230681532,39.180145519128],[-7.704216327476137,39.09753834670325],[-7.427751044651601,39.19954317430913],[-6.7501499037161015,39.27014199858673],[-6.5628886675992595,39.387029381164666],[-6.338551443619792,39.7531984658899],[-6.190860236992437,40.3708921965936],[-6.235551907665472,41.00297735770836],[-6.525822545939171,41.359676972650426],[-6.799759252186426,41.46596164367104],[-7.914534651448242,41.47543544807433],[-8.893987925191032,41.3762617538969],[-9.222213938139804,41.10167869664095],[-9.606456855838891,39.84754798174893]]]}},{"type":"Feature","properties":{"name":"Lisboa","original_name":"Lisboa","is_region":true,"is_nuts2":true},"geometry":{"type":"Polygon","coordinates":[[[-10.093067763588964,39.47551096717056],[-9.991549251921807,39.1540176515742],[-10.077346382266782,38.78313221100116],[-10.021691603737846,38.54323300017588],[-9.579743198434914,38.06215390569999],[-9.190654437537995,37.95973933120981],[-8.56796733330405,38.04285364044643],[-8.144812315254228,38.32401091232127],[-7.740303172073887,38.45066206209756],[-7.5505952748240395,38.75832086311455],[-7.6098420862275,39.009708162796805],[-7.319731096030979,39.31100800599367],[-7.225707935681823,39.56397691239886],[-7.27936397812215,39.75683437435759],[-7.596282878267026,40.09505380183312],[-8.505228422968987,40.28790391301034],[-9.395696360036075,40.099033632327036],[-9.590808308319549,39.89430873958647],[-9.923195030861967,39.738547873931026],[-10.093067763588964,39.47551096717056]]]}},{"type":"Feature","properties":{"name":"Norte","original_name":"Norte","is_region":true,"is_nuts2":true},"geometry":{"type":"Polygon","coordinates":[[[-9.48134525084335,41.75284075261939],[-9.239612619817667,40.88840381916603],[-9.070303121823494,40.57552746095654],[-8.83953821135215,40.38370865748704],[-8.569762206760023,40.311638435534924],[-8.09771274978212,40.33379217551986],[-7.894139204076442,40.41785092453728],[-7.354608713092706,40.369121129660684],[-6.52982812327956,40.6394214552696],[-5.814561513531518,41.14247167657853],[-5.590759544766593,41.533954154159254],[-5.694567558793237,41.83759095094944],[-6.327065942621537,42.37341294465498],[-7.109852341046882,42.43980666293947],[-7.541818551408834,42.33906178234849],[-8.095271351100303,42.597416963353076],[-9.038322650887816,42.38488282682974],[-9.413924736277952,42.064465962479304],[-9.48134525084335,41.75284075261939]]]}},{"type":"Feature","properties":{"name":"Região Autónoma da Madeira","original_name":"Região Autónoma da Madeira","is_region":true,"is_nuts2":true},"geometry":{"type":"MultiPolygon","coordinates":[[[[-16.572787718813213,30.02087021871655],[-16.376796354210942,29.68091654522135],[-15.94390875301284,29.58579864133429],[-15.450419974067856,29.856561698212115],[-15.342304785588363,30.208735473881696],[-15.56554513397042,30.525062497057924],[-15.97291143006718,30.60266984195062],[-16.41830969139041,30.372396699938076],[-16.572787718813213,30.02087021871655]]],[[[-15.748354827233983,33.1264134296219],[-15.822508952073047,33.356752612048886],[-15.961755163182781,33.48732354532405],[-16.35421904103377,33.574132704389264],[-16.634430494776982,33.4957996911887],[-16.849639392360125,33.30732178222442],[-17.320151745506994,33.307727287820114],[-17.519518807789776,33.229634983504766],[-17.734047342903256,33.032777725037334],[-17.798332833706585,32.771049038079546],[-17.67032972745637,32.50125490180484],[-17.513614875282506,32.36576488392346],[-16.93736338245169,32.18460107868745],[-16.670571050624968,31.989970249511885],[-16.35267034283664,31.96452986913961],[-16.10731015018559,32.07262941056441],[-15.961565656077267,32.25421774740377],[-16.000706729063573,32.66980136153128],[-15.786629278971535,32.872549900269675],[-15.748354827233983,33.1264134296219]]]]}},{"type":"Feature","properties":{"name":"Região Autónoma dos Açores","original_name":"Região Autónoma dos Açores","is_region":true,"is_nuts2":true},"geometry":{"type":"MultiPolygon","coordinates":[[[[-26.41224333916859,37.76849493784042],[-26.335127145611207,37.60632880581054],[-26.087276609454516,37.40709371901303],[-25.628270181787748,37.26839800936483],[-25.74432769041997,36.93219500537236],[-25.647961093004298,36.71230677091009],[-25.466984400489295,36.564551199187555],[-24.925719184641835,36.48416616276793],[-24.630170624874946,36.601547273547716],[-24.499619736100527,36.749472654074914],[-24.49122309490241,37.12453741561229],[-24.78926508459833,37.40968834284466],[-24.63652573698622,37.56568759930863],[-24.57103112837023,37.88754275988957],[-24.830965557810305,38.22372729610866],[-25.089219789679262,38.30276135143926],[-25.94779695567244,38.34073631474224],[-26.339965406464714,38.09565612396806],[-26.41224333916859,37.76849493784042]]],[[[-29.409819583332524,38.58767823497497],[-29.357177714263564,38.41205311681631],[-29.09840865179401,38.16293421678798],[-28.193976236562218,37.93385974024323],[-27.853196594690704,37.98355376345388],[-27.37867909757745,38.20645498260484],[-26.756185607287417,38.270593988368624],[-26.597557957538683,38.39558456186563],[-26.465341651565332,38.683574378855354],[-26.526902264420727,38.93669134454495],[-26.77672129432679,39.15723602946532],[-27.42174465817825,39.23804512005192],[-27.641386310985514,39.44444264217422],[-28.037369123931526,39.546831172472395],[-28.457406716048904,39.41504541423456],[-28.697389321684618,39.09276874638117],[-29.23898100597144,38.923274303110425],[-29.409819583332524,38.58767823497497]]],[[[-31.844722944471336,39.39712446235256],[-31.729905857371378,39.12307548986122],[-31.50616136547875,38.97271841429134],[-30.930592397741833,38.96763990121127],[-30.726132269376297,39.086858172135656],[-30.5803556562702,39.29435038299112],[-30.525882492526186,39.845961278825754],[-30.64419929259862,40.01251717478445],[-30.874628003210738,40.13915363651513],[-31.358395599727704,40.136661854934296],[-31.618855218076998,39.962700609416885],[-31.824773093710323,39.5939694251389],[-31.844722944471336,39.39712446235256]]]]}}]}