{"type":"FeatureCollection","features":[{"type":"Feature","properties":{"name":"Alentejo","original_name":"Alentejo","is_region":true,"is_nuts2":true},"geometry":{"type":"Polygon","coordinates":[[[-9.287134087686947,37.93562873436092],[-9.209174789983868,37.75488149709352],[-9.175251024725329,37.340774245142235],[-8.91712381047011,37.11641086504144],[-8.00362991343941,37.0081056173659],[-7.286330898916615,37.267453895715725],[-6.953384114679699,37.688504794149296],[-6.666822420787555,37.85153782180433],[-6.577250206792983,38.04069007880638],[-6.568109937384813,38.34072712704856],[-6.847403131354982,38.56752852764805],[-6.577015863596924,38.90338386824572],[-6.583401017491205,39.172611170078405],[-6.858465779595079,39.400655366591586],[-6.964063008564511,39.641889389570274],[-7.370099650810379,39.95122017795321],[-7.785259615094367,39.951325555313744],[-8.138633444197204,39.84618239426408],[-8.632523803593479,39.3425971446953],[-8.737142670221264,39.18652265783576],[-8.74401781234725,39.05741011714061],[-8.959723423176593,38.81593667566173],[-9.267896166033053,38.650952658975996],[-9.314091188204568,38.48113601334164],[-9.177393999320389,38.25159356940298],[-9.287134087686947,37.93562873436092]]]}},{"type":"Feature","properties":{"name":"Algarve","original_name":"Algarve","is_region":true,"is_nuts2":true},"geometry":{"type":"Polygon","coordinates":[[[-9.390801290791803,37.02192613414823],[-9.273413296401662,36.797652044317296],[-9.024439987399708,36.6847398490567],[-8.542499306494012,36.78197565197538],[-7.84444760623925,36.64854606923616],[-7.134717651120033,36.92853519653621],[-7.0147368767540925,37.07696845558682],[-6.999904162126952,37.19504857566308],[-7.094036911131457,37.60178392375687],[-7.198520659008393,37.73427682393455],[-7.381875866134009,37.82510454187375],[-7.661164103390807,37.83627333665161],[-8.078285727625833,37.71098559962804],[-8.807088951875057,37.75759087946831],[-9.138796530845633,37.6047320309691],[-9.390801290791803,37.02192613414823]]]}},{"type":"Feature","properties":{"name":"Centro","original_name":"Centro","is_region":true,"is_nuts2":true},"geometry":{"type":"Polygon","coordinates":[[[-9.434740668329665,39.82015352767661],[-9.438466956065472,39.669171914248864],[-9.25490650979482,39.307020493968714],[-9.015880017122122,39.163513844359024],[-8.628805459340386,39.17633697668897],[-8.368559655097796,39.33385768426761],[-7.796739562422665,39.22336729820268],[-7.47402433720946,39.33420680037413],[-6.829441399190346,39.39029026184652],[-6.651847103588427,39.5270629279608],[-6.460936906028348,39.950452294232036],[-6.481075217662363,40.125186712472434],[-6.367907067095318,40.369237989941944],[-6.4078156141478235,40.967099755813635],[-6.647913051553375,41.26074688834451],[-6.957817837397416,41.35107135940841],[-7.615437840531535,41.27117622770474],[-7.903485655738119,41.3407922075774],[-8.339871106473105,41.239347072546245],[-8.55937678956889,41.288640803060126],[-8.816709054207772,41.25440284320283],[-9.052547246116408,41.058778560979846],[-9.434740668329665,39.82015352767661]]]}},{"type":"Feature","properties":{"name":"Lisboa","original_name":"Lisboa","is_region":true,"is_nuts2":true},"geometry":{"type":"Polygon","coordinates":[[[-9.920142325576279,39.45613523376511],[-9.910335660216175,39.32854948273702],[-9.80060698802838,39.18648360160536],[-9.904296647105467,38.782704616499316],[-9.862680468633762,38.59570755617907],[-9.628471324357657,38.410068429624765],[-9.473039907875128,38.16774575082976],[-9.17418389940258,38.09488876863705],[-8.627194168222792,38.16944513956427],[-8.383123595726662,38.306884594682074],[-8.252592940483408,38.46240182335217],[-7.860302643208332,38.54750055738966],[-7.722630517078053,38.77261072699374],[-7.820384274475188,39.03676235256684],[-7.474532785286512,39.37316848855557],[-7.40080192435536,39.55889855039152],[-7.4609173006327385,39.74021673387244],[-7.705131747966275,39.98897219552549],[-8.49700915982919,40.15315214043123],[-9.288675888036424,39.99186421422852],[-9.455270800480973,39.76901008767102],[-9.799518073183906,39.64294409408186],[-9.920142325576279,39.45613523376511]]]}},{"type":"Feature","properties":{"name":"Norte","original_name":"Norte","is_region":true,"is_nuts2":true},"geometry":{"type":"Polygon","coordinates":[[[-8.39184533038494,42.43345186792087],[-8.918338763967473,42.28324405269614],[-9.207711614988998,42.05531697891342],[-9.29679713004408,41.886744710861095],[-9.291665159188199,41.680298792622345],[-9.042470383514388,40.85301759451071],[-8.74596485487002,40.498275692922306],[-8.230036398822362,40.45014146518537],[-7.9062656531425475,40.58094265872607],[-7.30952850159001,40.51727467500523],[-6.535019808492625,40.79935882844537],[-6.01611385663986,41.16730618480077],[-5.791928601966866,41.47174895141314],[-5.769461712053561,41.597908779756324],[-5.845693669642174,41.76339635957791],[-6.404726388970911,42.251351152702554],[-7.196034896848921,42.30290608916056],[-7.494871537263072,42.18947762927256],[-7.692403793342231,42.22236498057928],[-8.045924733262753,42.44806840075693],[-8.39184533038494,42.43345186792087]]]}},{"type":"Feature","properties":{"name":"Região Autónoma da Madeira","original_name":"Região Autónoma da Madeira","is_region":true,"is_nuts2":true},"geometry":{"type":"MultiPolygon","coordinates":[[[[-16.41713513197773,30.025006405903394],[-16.273002044861077,29.780421225633983],[-15.954206488558226,29.721892750503564],[-15.582974695790032,29.931185238488936],[-15.496576668825703,30.192159182468796],[-15.654544528135755,30.414111197194913],[-15.943874368348999,30.470111110587066],[-16.30616303228751,30.27845113299682],[-16.41713513197773,30.025006405903394]]],[[[-17.592669752534455,32.66072880252754],[-17.286323032128912,32.40485072871425],[-16.83950714685639,32.32231791659633],[-16.60366469834613,32.11237747942762],[-16.330442903026643,32.11130155006501],[-16.10617951431501,32.3188893212079],[-16.098556609406437,32.47242735860064],[-16.19947867651805,32.71009352629001],[-15.933689016103134,32.92684185661337],[-15.930785257522446,33.23413735796156],[-16.059142838678657,33.379660910095126],[-16.333518349239803,33.4403447467311],[-16.615259985534976,33.342982701645305],[-16.762185324563713,33.152274927625996],[-17.353600640186563,33.15559407967389],[-17.623384622537287,32.90858580160856],[-17.592669752534455,32.66072880252754]]]]}},{"type":"Feature","properties":{"name":"Região Autónoma dos Açores","original_name":"Região Autónoma dos Açores","is_region":true,"is_nuts2":true},"geometry":{"type":"MultiPolygon","coordinates":[[[[-25.575148640754836,37.0246396345817],[-25.496121446394103,36.771496749077635],[-25.212333737631372,36.62837077683982],[-24.811358080365462,36.65975368850895],[-24.622194781742174,36.90381718143678],[-24.722215815473625,37.18379558141264],[-25.008531996036734,37.32809191549921],[-25.409372713031374,37.25457596672712],[-25.575148640754836,37.0246396345817]]],[[[-25.92342864003267,38.203652136814064],[-26.124995719939413,38.10482063698944],[-26.253087357331154,37.84625638216947],[-26.13470701244708,37.616009698108584],[-25.915854568521546,37.47289607097379],[-25.5750141524388,37.39602838898247],[-25.127722571069242,37.426692246610926],[-24.936796056378554,37.48755284310171],[-24.790245160400907,37.623671366556934],[-24.740276146968686,37.86882671473006],[-24.92671845240229,38.11183018357917],[-25.92342864003267,38.203652136814064]]],[[[-29.237302209342495,38.59142500755085],[-29.153821550129233,38.405365068929356],[-28.99519571883346,38.270735626578336],[-28.207681904373146,38.068324733196256],[-27.82249974587066,38.14177393904506],[-27.4365415625094,38.35559097049944],[-26.92175804970776,38.35315218565811],[-26.74105249626877,38.470161698418096],[-26.6379631006819,38.69171062832301],[-26.68219938902636,38.8767465660205],[-26.871829404287123,39.044321996584536],[-27.25021860602034,39.11748767295596],[-27.54846333382312,39.06025420101631],[-27.748229399605034,39.33776960730522],[-28.034124910826975,39.410986389131885],[-28.334777644614302,39.31908192142014],[-28.4968816085864,39.038502204696464],[-28.62383097032258,38.96165067787932],[-29.116879676871616,38.827558517719865],[-29.237302209342495,38.59142500755085]]],[[[-31.670408542235187,39.40613529658669],[-31.59243041261191,39.20745945752861],[-31.429054959297936,39.09353775761458],[-31.227828134174164,39.05649961981777],[-30.962598193664878,39.10825693994365],[-30.72888156965942,39.379225163775956],[-30.704002391527588,39.82363492964696],[-30.942030364661157,40.01455665179381],[-31.345753926892606,39.98885613052011],[-31.503759194903708,39.83820268767159],[-31.654498668789536,39.56277389371759],[-31.670408542235187,39.40613529658669]]]]}}]}