{"type":"FeatureCollection","features":[{"type":"Feature","properties":{"name":"Alentejo","original_name":"Alentejo","is_region":true,"is_nuts2":true},"geometry":{"type":"Polygon","coordinates":[[[-8.895024844249095,37.952126799197494],[-8.850978984544033,37.922004706684234],[-8.819244211585303,37.92774451741721],[-8.804434301794462,37.89920163652939],[-8.800946458996135,37.811629047718284],[-8.817389431238707,37.7515157283279],[-8.795714025743363,37.71609515247598],[-8.823379884565187,37.59507872080994],[-8.795373313896617,37.5408203389814],[-8.807252362649587,37.44914580043759],[-8.754763658950734,37.4198205932014],[-8.73890963927271,37.393853718897205],[-8.665824621267403,37.39533978483875],[-8.642865641078538,37.371640952264016],[-8.61140812410539,37.39788003689734],[-8.565101327286218,37.402345327949696],[-8.514176527699819,37.37427942262782],[-8.455336537723982,37.36926686608985],[-8.422855019274738,37.38350659346977],[-8.413613257791773,37.413929865510426],[-8.30104070666215,37.427402535079],[-8.279247738622468,37.408063619917456],[-8.280503432268064,37.384894407011856],[-8.191385203333649,37.33805371557064],[-8.06895828709067,37.31518239355158],[-7.990372178847698,37.358163475244744],[-7.994242905525169,37.385898162882874],[-7.962096698789043,37.40491123564399],[-7.906927311322751,37.39980075509065],[-7.886468965228406,37.428475724746164],[-7.71258815828628,37.493421625032916],[-7.621454594288562,37.485329727119186],[-7.571582291461492,37.52308797728102],[-7.508352078585154,37.52319427837372],[-7.515039927322681,37.549659293712416],[-7.495419288644743,37.59991711920721],[-7.438281408189357,37.66624552770848],[-7.416143293803371,37.75466448207509],[-7.296325817292581,37.839390428699616],[-7.249360392310166,37.9225615120609],[-7.253900037535957,37.97727157449094],[-7.134247355623001,37.99520214747442],[-7.0987808620142046,38.03813499458718],[-7.062929250270139,38.01371376285107],[-6.997884676981154,38.01928205548913],[-6.983322067402824,38.09549145114991],[-6.946724001858491,38.15413588510115],[-6.9562487476458825,38.17483217223344],[-6.926064438407731,38.2068905583524],[-6.9374421494892875,38.22512112204814],[-7.094655757040659,38.1833350173469],[-7.146433432636532,38.27895595440962],[-7.277987595091316,38.42413214882109],[-7.314287262469434,38.44418061909412],[-7.290254891751594,38.479334226986495],[-7.315648268935327,38.47976521906175],[-7.2808784806740725,38.5703632315483],[-7.239389259103614,38.62095400063233],[-7.264198076201946,38.64754303589658],[-7.254134239516255,38.72163463890081],[-7.034575341069552,38.86203461682448],[-7.044203200147084,38.9062891668729],[-6.946296730774761,39.021124995685916],[-6.957590659411611,39.062910497967046],[-7.029546636544271,39.12115525189096],[-7.139460000232149,39.11218515410064],[-7.13096131518336,39.17465725597356],[-7.235297130271171,39.210347754398676],[-7.241900227638545,39.25283475367245],[-7.226357656359435,39.280391241455504],[-7.296819903605374,39.334557969449584],[-7.313930973564647,39.381442633349664],[-7.288572895628049,39.45779207601458],[-7.368823120488216,39.49248541747785],[-7.397188407607085,39.53770108456462],[-7.43007654416478,39.54170539334717],[-7.493092398163421,39.59380804079689],[-7.528502792907963,39.6655147259413],[-7.5799927778618335,39.6632632833341],[-7.638645048780175,39.62722534966671],[-7.671295408158185,39.65335216106725],[-7.705524839311843,39.64065149346131],[-7.7268763205251085,39.59660049916104],[-7.7572980919455725,39.59231513699733],[-7.848421304287591,39.515639384744894],[-7.910290553925487,39.55326056243091],[-7.96403135947741,39.563937853815],[-8.013833130219236,39.47559139250325],[-7.998759278609023,39.44456888564505],[-7.946103772725847,39.410856810311415],[-8.036801259518064,39.36387676296532],[-8.036017385578194,39.339139469028645],[-8.083698533242757,39.28320942939488],[-8.13611368055402,39.29171268917009],[-8.188832554030427,39.22209117463367],[-8.297641889603812,39.16727793735894],[-8.349260175163758,39.110173995542944],[-8.3407795769391,39.09297579970766],[-8.298601491820847,39.078599961161345],[-8.262792902067721,39.00791297615539],[-8.232493859493811,38.9972041647156],[-8.248069832791078,38.9428586106532],[-8.27727798537727,38.90952080234382],[-8.211594849115034,38.87097966448776],[-8.17453352429537,38.867235434186256],[-8.190307985875588,38.83328962339747],[-8.162217980985345,38.80245325434517],[-8.13615051017577,38.80706607345439],[-8.146668541672536,38.786063097960344],[-8.166343006751553,38.784174306196356],[-8.218062010420281,38.832451680168575],[-8.251514911279747,38.82548009266048],[-8.296301160841862,38.87102055128273],[-8.345894933507743,38.843742901568426],[-8.382043195158078,38.859085075620314],[-8.463692717910021,38.806088265424606],[-8.498932028838583,38.81183385887947],[-8.525236259200721,38.79308727567359],[-8.551253344638448,38.76629093337419],[-8.497750145814573,38.757760676487635],[-8.516159979256603,38.7377998906204],[-8.508286956170048,38.71790820108983],[-8.659209453028046,38.612599091987974],[-8.645411231132085,38.55270643507421],[-8.744651730284273,38.51586350049051],[-8.737338082979473,38.49938320476406],[-8.757794185098456,38.473877610955505],[-8.807649440082553,38.466537920054186],[-8.893752218647856,38.509230651141294],[-8.916591671710444,38.5059217388573],[-8.909189584604437,38.48057548701497],[-8.817191365377232,38.395292961025994],[-8.78217223781787,38.26193193925315],[-8.798468729759296,38.134470400336404],[-8.851623475556968,38.01016269137477],[-8.895024844249095,37.952126799197494]]]}},{"type":"Feature","properties":{"name":"Algarve","original_name":"Algarve","is_region":true,"is_nuts2":true},"geometry":{"type":"Polygon","coordinates":[[[-9.002812869745505,37.0237336018665],[-8.967829464296962,37.01914451849772],[-8.94317424671219,36.99071816435388],[-8.838273992740138,37.05619449857173],[-8.727722194443311,37.080042209212344],[-8.6673556831351,37.074386654286364],[-8.660619878279961,37.103609234678565],[-8.602527662176508,37.118575462801985],[-8.444157453784097,37.081580761513464],[-8.361102403123246,37.09618521612478],[-8.303003144478202,37.068161239562286],[-8.18450769795784,37.08594079701034],[-8.091485388686117,37.05682132527745],[-7.9356096747263045,36.96673764783487],[-7.883153846979664,36.95734882924058],[-7.570765819243868,37.13715189346102],[-7.463077151837315,37.17197364483772],[-7.39046801526548,37.16229813124949],[-7.4263865509923415,37.24803248443067],[-7.4184222602474925,37.27914315016949],[-7.43568758786648,37.30867735126894],[-7.434867230176413,37.391613354588365],[-7.456638935398558,37.40985002503575],[-7.439852793751702,37.41908901203666],[-7.45765280164258,37.485598750879156],[-7.4927421234641844,37.52743422049492],[-7.515662150517348,37.533141428793186],[-7.5744656744448555,37.53358851491794],[-7.621359150645525,37.49980180634272],[-7.67388116417344,37.510279785521696],[-7.768841821828957,37.491361202679265],[-7.895268482926596,37.43819544930316],[-7.914833284465789,37.41498117806942],[-8.001102301004455,37.402364457173675],[-8.009197430924589,37.37238980698524],[-8.065277085703709,37.32873498192874],[-8.191823155791694,37.34890291580027],[-8.26445980031448,37.39145376629142],[-8.278783041724136,37.4327679134474],[-8.313771219105611,37.44269251659272],[-8.404978419027211,37.428894949674415],[-8.436483521986647,37.389890818903886],[-8.473614331300242,37.3848980041147],[-8.51553746358057,37.38581348232473],[-8.57071255678057,37.41602799084916],[-8.64793148206989,37.38944629321503],[-8.661188932820467,37.40463585089194],[-8.724462640481876,37.40555777689855],[-8.753043716964829,37.43644023003589],[-8.795474897715511,37.447393959465956],[-8.885104579276549,37.32384978369025],[-8.866837800751105,37.272398685570245],[-8.875670195297708,37.247427260268154],[-8.919233338278264,37.20138360250667],[-8.914700730616438,37.161219376747205],[-9.002812869745505,37.0237336018665]]]}},{"type":"Feature","properties":{"name":"Centro","original_name":"Centro","is_region":true,"is_nuts2":true},"geometry":{"type":"Polygon","coordinates":[[[-9.045680230260396,39.743111529904134],[-8.980274359480898,39.710105737178694],[-8.922478144700065,39.655248078152134],[-8.933353368644331,39.60569279075704],[-8.908718415546694,39.567653442466884],[-8.874790373826645,39.56445921973337],[-8.909988316244302,39.47266288373239],[-8.893090992823309,39.46077280812991],[-8.72762265821815,39.475724008951346],[-8.73726375292814,39.529517264620445],[-8.718447777061398,39.51748711335952],[-8.694192995747052,39.527914691878024],[-8.66533355145762,39.56360121003038],[-8.693524395658342,39.630013102910816],[-8.646343201683813,39.65684516325509],[-8.626522709385256,39.69412911178306],[-8.674516527173148,39.71792806149327],[-8.663753782586957,39.71947628597652],[-8.671278432212592,39.77070785450478],[-8.623245063408106,39.7851569773344],[-8.584031033063006,39.77495150762249],[-8.485385051058799,39.82605874563041],[-8.451776501695335,39.72645679907209],[-8.402353322116326,39.75529430013239],[-8.327077429717596,39.757785021102706],[-8.309926945399704,39.79136623648797],[-8.267810510889905,39.764593083785826],[-8.247661060608534,39.77360975063831],[-8.234874232241149,39.7534087448727],[-8.242999288151415,39.642955472955094],[-8.135267285462012,39.606819199575696],[-8.050883396259092,39.61251558623914],[-8.068879122944011,39.6549727001611],[-8.052586800249921,39.670189105652454],[-8.049277553736287,39.73207324829439],[-7.98576921525074,39.72449666899161],[-7.96656744024759,39.73779862778581],[-7.963291329307732,39.66001719271108],[-7.908249800029705,39.6567571596194],[-7.8674236259345385,39.629109646926345],[-7.822045567268022,39.57411600154271],[-7.828029595676165,39.53347541303592],[-7.715473393566927,39.593221681337035],[-7.709527633367066,39.621425012787505],[-7.680398718792707,39.640222183434375],[-7.641490825840634,39.61819951729997],[-7.536633352275977,39.66144997778246],[-7.335409987705376,39.636552940893914],[-7.251257883849806,39.66224091702383],[-7.153034230704749,39.64876653183891],[-7.013980742421404,39.66608927967884],[-6.9815727918564745,39.72658524695354],[-6.978070341294042,39.81063845304308],[-6.898305660736758,39.868765595743604],[-6.8987510696858845,39.918643576904174],[-6.858909804755257,40.00950398932686],[-6.935066008726205,40.11179075494934],[-7.004283513078982,40.13283962321367],[-7.013149717930291,40.20470745535499],[-6.995572238246054,40.231023435395045],[-6.941742174979847,40.252463948161186],[-6.864639916100107,40.260642956913024],[-6.844331515824117,40.30320343443674],[-6.785043416398162,40.3322351154344],[-6.777698944767617,40.36059098457514],[-6.833098923411645,40.41618658173544],[-6.8435197943532815,40.45113950008202],[-6.7894221712573195,40.510686791466945],[-6.800662663655573,40.557355929518955],[-6.8359738308286095,40.574485935308616],[-6.788202390823432,40.662181374499106],[-6.822691599768634,40.74492339780822],[-6.815486034901225,40.835715539953696],[-6.794783876571747,40.84655838669262],[-6.803210566647855,40.8833090026451],[-6.837616347027894,40.899805075591736],[-6.853424876339943,40.95100963315965],[-6.929323063885239,41.03363795920391],[-6.979474959603029,41.037249679142846],[-7.005153717224655,40.984327546207936],[-7.102736162793442,40.97754882089318],[-7.1389479171617225,40.93038376870737],[-7.169111599315768,40.93576720027976],[-7.160865318090756,40.97142631992444],[-7.178843437898063,40.996452579651944],[-7.161252236128276,41.00958722329536],[-7.172715852721617,41.03217000891223],[-7.2103012286768795,41.0419531199163],[-7.242688034960145,41.01686548294427],[-7.379475834019126,41.01784492805995],[-7.384502103290127,40.99257488531242],[-7.3316725088941865,40.97022014181733],[-7.3803542320940805,40.911861842704496],[-7.426764916851381,40.9190538902603],[-7.436298216491583,40.89467847689217],[-7.413662336509788,40.871501060258545],[-7.44591467778206,40.82412779150706],[-7.527476549437752,40.87732622382669],[-7.568049793617282,40.874174062614344],[-7.596564823885569,40.83875522541674],[-7.628694013330456,40.87805196239025],[-7.686744622082309,40.862141776226366],[-7.707933374481406,40.88643776480332],[-7.6870903751932245,40.94420226583341],[-7.743512727766883,40.94354867608167],[-7.748197781081606,40.97127846363891],[-7.7851995313535465,40.98374154996392],[-7.819219147887128,40.961838638098385],[-7.8808409610731145,41.00063080710501],[-7.873594805307209,41.0299606189505],[-7.884077423975547,41.02926466885917],[-7.9440721872020905,41.01887004463276],[-7.9607512358792585,40.987811438771836],[-7.999203907474721,40.97246710156741],[-8.095885922585122,40.98937990869754],[-8.137969337475099,40.94990012366214],[-8.133445112509195,40.89640922797422],[-8.111399994183284,40.85900062372829],[-8.164290727435956,40.86999476350626],[-8.192907060413022,40.85107484844177],[-8.226792154506397,40.867823295882744],[-8.257693026152086,40.85989749208955],[-8.242787183069279,40.82644332238663],[-8.273709498832865,40.78209133875969],[-8.333412587539112,40.7823319933359],[-8.394957557804384,40.80369097102024],[-8.420380529711553,40.77484342440958],[-8.450088762424555,40.78480077235688],[-8.513388572225344,40.764931025340346],[-8.542125375060495,40.808281851170506],[-8.51949116369786,40.830143908724146],[-8.535809434435413,40.84353148951977],[-8.517295857477952,40.89032033529653],[-8.553566836083622,40.87723763649641],[-8.573226761068774,40.887080705536114],[-8.59806841590324,40.97526395985414],[-8.653974858726146,40.969228225309294],[-8.76951509111147,40.64279099988156],[-8.757582964155437,40.62748734548258],[-8.834443357745345,40.37879576879048],[-8.913905632909254,40.19128097276534],[-8.879380041013786,40.157974388277815],[-8.873492746246379,40.11397832107945],[-9.045680230260396,39.743111529904134]]]}},{"type":"Feature","properties":{"name":"Lisboa","original_name":"Lisboa","is_region":true,"is_nuts2":true},"geometry":{"type":"MultiPolygon","coordinates":[[[[-9.505184572887826,38.783361608829445],[-9.48155841048848,38.75013111909092],[-9.492095571167528,38.71143352820774],[-9.463739792096025,38.69150169942253],[-9.421921680349191,38.68503756833457],[-9.403729240471296,38.698647459881116],[-9.319451102523042,38.670221072548145],[-9.247482774575804,38.694093196827964],[-9.268475640916268,38.66391733316852],[-9.217294549040433,38.604089919421845],[-9.188607122122999,38.52713411864497],[-9.222781902113615,38.40863935203695],[-9.061564385203749,38.4307919169576],[-8.93133536395799,38.484330615927554],[-8.921168550972473,38.50255744211611],[-8.810125308480558,38.457730924765315],[-8.750748319581577,38.46669748682213],[-8.726561722310034,38.49522645135741],[-8.73345370365334,38.511052780323666],[-8.634009944698722,38.54742121408389],[-8.652040291950888,38.60337875141346],[-8.498693333770577,38.71138049226867],[-8.500732257225232,38.74327347472599],[-8.485209851124699,38.761136578830275],[-8.525390635735246,38.76636070458758],[-8.50028670667771,38.798782300063664],[-8.475274087176212,38.79081444842022],[-8.377744004565587,38.84881681210729],[-8.342387998427458,38.83436381382716],[-8.301155203521763,38.856127634701366],[-8.255099411726922,38.81536589777639],[-8.222209608595834,38.82236398212046],[-8.210589009625767,38.79846337873942],[-8.181919268483298,38.79844169308589],[-8.176551346644242,38.77747920095171],[-8.136820835694394,38.77041741982918],[-8.119205778841996,38.802871747381],[-8.17974321999185,38.83869415957745],[-8.154581592411072,38.8632707438926],[-8.16146954406161,38.872890838247386],[-8.264156555612434,38.9095208137946],[-8.215910663331469,38.99773766606716],[-8.25283509065706,39.014926589319415],[-8.285044575348408,39.080601798297224],[-8.336762283263683,39.10293175333283],[-8.295322401802757,39.15594757157183],[-8.177890796188471,39.21792709969453],[-8.131287695401484,39.283397920737066],[-8.07738357480635,39.273516047294926],[-8.018641433432535,39.36020008261481],[-7.935024828428185,39.40704038170904],[-8.001368623944005,39.46943546901725],[-7.954131502582314,39.555832651315306],[-7.837652520217353,39.50995108636421],[-7.804665712682601,39.5714461856154],[-7.893981267659753,39.66247479051494],[-7.948307450726487,39.66563093742825],[-7.961339211418945,39.74851836183027],[-7.986631150331714,39.73612184656756],[-8.035190478313215,39.75191518088803],[-8.053455255780712,39.74200103091212],[-8.084672289455584,39.656833999016975],[-8.065150765640361,39.62479313795245],[-8.140311067736794,39.6181731342358],[-8.228285412609678,39.650179244560675],[-8.221972478798035,39.743559784604685],[-8.23780465974565,39.781063084148826],[-8.263156643181484,39.77505055869984],[-8.288955150145423,39.80177945680721],[-8.334731525354181,39.807784617298246],[-8.331586454832385,39.783118898038],[-8.440571349752586,39.74377607682525],[-8.481218229542108,39.84246227580238],[-8.506708325359165,39.82493099385622],[-8.525797442752781,39.83199766175841],[-8.546499684719949,39.80440811879142],[-8.59417547061817,39.78188573724899],[-8.634829098796187,39.79438296981523],[-8.683364883301328,39.77340128799913],[-8.685017979993312,39.70911928499747],[-8.640823925264485,39.69473846487489],[-8.653433339666007,39.66643459441209],[-8.70670491672547,39.642585131237546],[-8.681929926677263,39.56382809891718],[-8.715133433176533,39.52738037218153],[-8.731314493957164,39.54032068296046],[-8.74980866012695,39.53318240898068],[-8.739392913172491,39.48735068087548],[-8.892456897442917,39.47176086233751],[-8.88312814861802,39.53426368058038],[-8.860545282146367,39.561514241194],[-8.877156923238891,39.58208315723269],[-8.897576504767411,39.576324619880886],[-8.923323481327115,39.61035177278021],[-8.92687571344115,39.62397489588206],[-8.906953092509827,39.63375780422299],[-8.909714473297052,39.66579420888356],[-8.973623008890314,39.73177984024104],[-8.99776409753854,39.71903949009261],[-9.04575386872271,39.742964681403826],[-9.091126745080961,39.616307524717996],[-9.080023107512554,39.59871479499508],[-9.11736625489347,39.54974918129434],[-9.278335572809345,39.40502342885801],[-9.345985101345233,39.38192070041393],[-9.356844208525134,39.36507381933307],[-9.383733643679513,39.37900455534017],[-9.41285915365631,39.36348039881419],[-9.366776845370127,39.33922233347548],[-9.354460950638112,39.312217379355715],[-9.349250891592684,39.217046644252086],[-9.424230688948773,39.080634694415146],[-9.421419183944119,38.94509446817243],[-9.505184572887826,38.783361608829445]],[[-9.196869248972424,38.68251584320416],[-9.158819757411711,38.69092003713369],[-9.18026532232219,38.68413569959177],[-9.196869248972424,38.68251584320416]],[[-9.141519695360673,38.690894046573746],[-9.0955172309201,38.72182362999976],[-9.080740981070871,38.79467313095574],[-9.032467566024925,38.84366453127007],[-8.999206894277977,38.78955183715533],[-9.060323929554661,38.688090120957696],[-9.117471640789487,38.65677539825819],[-9.141519695360673,38.690894046573746]]],[[[-9.522531002262527,39.411335533676905],[-9.496941916772096,39.41553347781903],[-9.51308840323738,39.42418122561025],[-9.522531002262527,39.411335533676905]]]]}},{"type":"Feature","properties":{"name":"Norte","original_name":"Norte","is_region":true,"is_nuts2":true},"geometry":{"type":"Polygon","coordinates":[[[-8.885874846657734,41.75577667162598],[-8.83128044624071,41.66249367816384],[-8.782757552115825,41.478966746686346],[-8.794068673812136,41.41196681284265],[-8.745395577469337,41.32338238305067],[-8.714014691568837,41.171368630074475],[-8.6752895192385,41.137927332803535],[-8.651651777343794,41.02394761320146],[-8.657550921827887,40.961774854895545],[-8.611145836242713,40.96702133323949],[-8.592298379509662,40.88804435620549],[-8.566729619456892,40.868622674382685],[-8.534653365738885,40.87892569482154],[-8.556485962389402,40.85044597917378],[-8.541038401822243,40.824616267532214],[-8.55297797275529,40.786069587197595],[-8.510555856255595,40.754623012488835],[-8.469131988727922,40.77241014808066],[-8.41089686340601,40.76559191631772],[-8.379759461904333,40.79388760120779],[-8.34205421723459,40.772870208866614],[-8.290893044359219,40.779264129744455],[-8.27408225938072,40.758709477805176],[-8.231175862889748,40.82421086273866],[-8.246358202723718,40.85406324966682],[-8.19168717796184,40.84171505076466],[-8.172024714927652,40.85651062684789],[-8.10228161140107,40.85193845035552],[-8.126554646615215,40.94707404611106],[-8.111618932343385,40.96260302002642],[-8.084840934518173,40.98139744004944],[-8.018486823153916,40.96032511779619],[-7.967686330679612,40.96815335941156],[-7.935979544704024,41.01224839986108],[-7.900267981444093,41.017536235192615],[-7.901285077863196,40.98961953970041],[-7.857140446656333,40.98227688060349],[-7.8221277522370665,40.95188965588828],[-7.769405219911976,40.96998510598009],[-7.747528515181386,40.93489427888751],[-7.695187212118991,40.93600515288478],[-7.72194622708089,40.88539372540894],[-7.69375955667697,40.85257970565656],[-7.660442173800845,40.84923555809297],[-7.635731548205751,40.867897941760404],[-7.595011036940152,40.826384311644304],[-7.572635684476411,40.85942730196291],[-7.530250559110054,40.86855386257604],[-7.448331326879602,40.80961270698683],[-7.392397338920703,40.87443060472512],[-7.376085997044596,40.8653264830714],[-7.369707990858707,40.90560070680435],[-7.326077523004894,40.938062580456595],[-7.3206292956015915,40.96609579141616],[-7.3724629065072875,41.005746627877514],[-7.3302436686256,41.01644835164784],[-7.250527640911673,41.003443560611124],[-7.198691541016374,41.031969793405956],[-7.177700621590158,41.01607862807122],[-7.191258959362271,40.99462818760136],[-7.17481086136665,40.966799135038805],[-7.1913848940863545,40.93673516934303],[-7.142395308694084,40.91855736188262],[-7.100556735323021,40.96189177663534],[-6.994975701708947,40.97807713534338],[-6.976117462400546,41.026264203941736],[-6.81616981196894,41.0283837323369],[-6.74895416169493,41.101909761201],[-6.7648581737102615,41.12550540555094],[-6.705207890871504,41.16924910569505],[-6.644225338462784,41.24325953052988],[-6.5712227995203385,41.23454627954295],[-6.5265903685254845,41.26341558008981],[-6.492907124712186,41.26245276349003],[-6.473008462990177,41.278448220069315],[-6.484167513315354,41.285617006090305],[-6.434076660118254,41.30170249721772],[-6.412397224418026,41.34174162002653],[-6.376317727453571,41.35261985988631],[-6.38694615224546,41.377841797638624],[-6.31423236301374,41.38205398009177],[-6.324486933844957,41.40812658851492],[-6.289733271409677,41.43290659745464],[-6.2792715423341505,41.475485684250025],[-6.1856250598919535,41.571194940697005],[-6.196458570211603,41.59705564129563],[-6.298999812604337,41.66557372970063],[-6.44583122068868,41.68918339631493],[-6.4984907378079315,41.661643134098256],[-6.537823572697359,41.68395244989569],[-6.556619499305596,41.74449234454914],[-6.509560625345405,41.87090669588226],[-6.55375373674354,41.88392222100721],[-6.540941622869129,41.94120222582687],[-6.585746762284265,41.97164026693546],[-6.621989473216807,41.94444658142232],[-6.699389064075273,41.937970444334766],[-6.741539584243219,41.94537384701483],[-6.763305306140973,41.98614546540586],[-6.809137006981565,41.99670692067851],[-6.826332488194613,41.94948417688913],[-6.892744615252693,41.94439416431557],[-6.978064932984207,41.978174245575396],[-7.010630479214264,41.95551644039391],[-7.064877518695859,41.954594433564566],[-7.141144990562754,41.99524834974455],[-7.1866697311221195,41.97960523739486],[-7.184921267340395,41.91680903378398],[-7.204244879208929,41.88363123227838],[-7.320631377120559,41.84867912855496],[-7.369130462413477,41.85653182927906],[-7.4188270192010375,41.81741283347863],[-7.447558350137445,41.867666315940184],[-7.50357111636799,41.873767504016165],[-7.538083905042325,41.841589880616795],[-7.598316269605401,41.837608414378764],[-7.583339129834794,41.885952825807884],[-7.6515302641585485,41.88553005331606],[-7.693804545094539,41.910871561813344],[-7.845317008192342,41.88577467666627],[-7.87800286667661,41.85970261043234],[-7.880385001979771,41.92747215273843],[-7.902363607830734,41.93094898909146],[-7.9270577316015824,41.88318262319987],[-7.991447246778882,41.87273738124896],[-8.016338058927959,41.838212761681895],[-8.098851547607252,41.814954655764566],[-8.151540353078392,41.82196827746474],[-8.166778643395812,41.88167543497065],[-8.191200108326507,41.88100634947896],[-8.210572341260624,41.91209566455302],[-8.125355295978382,42.00096218544144],[-8.081996466086423,42.01314299142039],[-8.078413079612755,42.04762840598395],[-8.115536499391803,42.08614111973543],[-8.174095195985746,42.070936917652396],[-8.183195875336308,42.146288656064456],[-8.202250648697033,42.15798518583582],[-8.340649161063737,42.08907954781965],[-8.520363928273799,42.083793882699695],[-8.547963333034772,42.058508259203926],[-8.642946312550807,42.049478759138],[-8.666269026723208,42.00666363723453],[-8.74796936871515,41.96937000508789],[-8.762098000918808,41.935336710640556],[-8.820412556240889,41.91552100497227],[-8.876406263352454,41.86655237627164],[-8.885874846657734,41.75577667162598]],[[-7.424390614993181,40.89511162332963],[-7.411818151757125,40.91732013131956],[-7.3892479643714335,40.90347330077448],[-7.403468025861796,40.88460078673497],[-7.424390614993181,40.89511162332963]]]}},{"type":"Feature","properties":{"name":"Região Autónoma da Madeira","original_name":"Região Autónoma da Madeira","is_region":true,"is_nuts2":true},"geometry":{"type":"MultiPolygon","coordinates":[[[[-15.891116802455057,30.15802438284053],[-15.873552551385057,30.134997685060814],[-15.852875078431392,30.134063257939797],[-15.853303633104877,30.154166943173312],[-15.891116802455057,30.15802438284053]]],[[[-16.0590021965813,30.03392636788007],[-16.033534166004692,30.0254285073376],[-16.01316642424577,30.038406416486392],[-16.03973658053963,30.03477567758587],[-16.045367312931862,30.06369134293828],[-16.0590021965813,30.03392636788007]]],[[[-16.415490114590074,33.03841137236265],[-16.39307730219631,33.0267988706569],[-16.395430027260588,32.99869223653367],[-16.376104465918736,32.994648134073294],[-16.377292196020953,33.01889611280088],[-16.32684713260768,33.05619039551539],[-16.27373341100761,33.04968559256544],[-16.286086622886163,33.0626132848245],[-16.28213842307517,33.1016853887528],[-16.328145778934186,33.11023791470355],[-16.372826376575336,33.086490836793985],[-16.415490114590074,33.03841137236265]]],[[[-16.2916601513504,33.12790641104254],[-16.289920435980655,33.12110764648619],[-16.278615889282047,33.12598964391333],[-16.2916601513504,33.12790641104254]]],[[[-16.291823059887665,33.11353132420249],[-16.280962812847267,33.11075889174059],[-16.282120707081106,33.1172659173406],[-16.291823059887665,33.11353132420249]]],[[[-16.375810908284162,33.10293959588967],[-16.364804055450048,33.09926627886922],[-16.365285125376747,33.106407425771074],[-16.375810908284162,33.10293959588967]]],[[[-16.49955234391226,32.4494542241075],[-16.485529997886214,32.40917614686744],[-16.457718634466328,32.403563250543485],[-16.48898064930136,32.468335459392165],[-16.49955234391226,32.4494542241075]]],[[[-16.554425480217486,32.58974327080542],[-16.542986223934406,32.5387562307639],[-16.4904305367095,32.47177630769568],[-16.495429372153666,32.522182309731065],[-16.53919630246907,32.59212250484733],[-16.554425480217486,32.58974327080542]]],[[[-17.270616728290435,32.816346625220575],[-17.21562583730611,32.73326092785915],[-17.107615968409434,32.674282184412],[-16.944853212363395,32.62846612181902],[-16.89571295047242,32.64225989430738],[-16.834324758983882,32.63672991857285],[-16.746116644148433,32.72430557433852],[-16.649919279900075,32.73178920818487],[-16.692588819435393,32.75887275348034],[-16.81761559922215,32.773468984985165],[-16.906967061961762,32.841279885752506],[-17.050445468764586,32.81341731521394],[-17.11788088176517,32.830720545499496],[-17.157043342310825,32.87046333776007],[-17.193292727911583,32.87506340260882],[-17.270616728290435,32.816346625220575]]]]}},{"type":"Feature","properties":{"name":"Região Autónoma dos Açores","original_name":"Região Autónoma dos Açores","is_region":true,"is_nuts2":true},"geometry":{"type":"MultiPolygon","coordinates":[[[[-25.190908062538778,36.98635262427285],[-25.16026041169363,36.93601234913435],[-25.107712668837877,36.94640059084665],[-25.071109269842673,36.924847829427385],[-25.009598767014026,36.927189764407416],[-25.00965614937563,36.95839343871144],[-25.050046075359663,36.99177571286119],[-25.05426899411774,37.01813250225505],[-25.142067795831537,37.01604238803026],[-25.190908062538778,36.98635262427285]]],[[[-25.86026467580786,37.86081701319101],[-25.818137863346912,37.80583650104735],[-25.697934933892256,37.7307024302432],[-25.62656900317254,37.74597649960406],[-25.506061140766228,37.702932800922696],[-25.365246995334058,37.70972157947746],[-25.267099731603977,37.74125817559439],[-25.168243615934156,37.73821181713634],[-25.13339802389875,37.7806221171605],[-25.136628786282493,37.83694933131125],[-25.170778333958147,37.86196227193398],[-25.312126869004576,37.86980889554246],[-25.413518698585783,37.83119384440131],[-25.46251622252749,37.83074456405168],[-25.487400391305364,37.85179982368621],[-25.552635985063766,37.82068261637808],[-25.594692985733474,37.822905758397205],[-25.668179991425866,37.83956713312078],[-25.71099143854993,37.88595921451205],[-25.78010657376131,37.915034848739786],[-25.822793505376893,37.9047449399611],[-25.86026467580786,37.86081701319101]]],[[[-27.384136483901916,38.73087873685936],[-27.343452408848954,38.67677968481707],[-27.28063221356102,38.64882183047121],[-27.23642984853984,38.65067340138507],[-27.229057404605395,38.63502532530863],[-27.185687999975098,38.64990542506085],[-27.07238941144637,38.640829761479566],[-27.036979720799113,38.70078787846092],[-27.06510650738877,38.76929297400406],[-27.097236366298883,38.787880930475055],[-27.20354900268997,38.804226331132575],[-27.3355882869786,38.79772374950382],[-27.381885204866425,38.770144453035115],[-27.384136483901916,38.73087873685936]],[[-27.054018882222962,38.72215009347044],[-27.05407287308719,38.718650924278464],[-27.056308926227757,38.723325684142914],[-27.054018882222962,38.72215009347044]]],[[[-28.322063019282897,38.75180374826665],[-28.23366666733849,38.697566352462],[-28.225966573567593,38.676292093000136],[-28.026249049906014,38.59709068904212],[-27.945136566042454,38.58506848279588],[-27.830022389247983,38.529240975553556],[-27.77165225194755,38.53106209825273],[-27.74691669214471,38.548765758833],[-28.02219921756894,38.67644294620778],[-28.287285822252528,38.75640904477519],[-28.322063019282897,38.75180374826665]]],[[[-28.076971960884585,39.06907112502493],[-28.02842311130214,39.01798410659152],[-27.971942921924857,39.004287066738804],[-27.942284556061633,39.01815088455727],[-27.99279677239195,39.09208926305753],[-28.045035130135297,39.10006022317134],[-28.076971960884585,39.06907112502493]]],[[[-28.547134428913914,38.49376519181555],[-28.51399254675583,38.44545355386894],[-28.446929076149875,38.41604862071369],[-28.278525644459027,38.40767627508349],[-28.2469619752675,38.380019396002574],[-28.174933965696432,38.404147283240235],[-28.096135988080142,38.395578523616024],[-28.024967508222883,38.40842803282827],[-28.027217115500026,38.42773685781761],[-28.055068594526833,38.44700747703651],[-28.172836145907418,38.46402158442462],[-28.387635555267995,38.56243017769954],[-28.509503002298402,38.55633544455519],[-28.54202344508127,38.53213549943819],[-28.547134428913914,38.49376519181555]]],[[[-28.840087053879056,38.600687156761026],[-28.765105125540074,38.559483798092415],[-28.7574133860536,38.51888441641353],[-28.619601486474874,38.511826932924095],[-28.596787494338244,38.54619399881771],[-28.599423704050444,38.60210947761781],[-28.704278190689013,38.648112155847635],[-28.75687812098386,38.61509765709336],[-28.840087053879056,38.600687156761026]]],[[[-31.128685145651602,39.67214297077266],[-31.109709563935542,39.66572406803449],[-31.082865764158583,39.68340722974891],[-31.087370836959494,39.723685860821696],[-31.124200723047743,39.72936806054353],[-31.128685145651602,39.67214297077266]]],[[[-31.274118568877846,39.45348418140275],[-31.263266682143776,39.38675051375639],[-31.234714680009944,39.36749733992103],[-31.158370978435098,39.38127045876061],[-31.119075186798796,39.45629261931219],[-31.153256122357252,39.50526951538455],[-31.18497028540244,39.506089244983954],[-31.206988756928094,39.528727454309234],[-31.236777560537046,39.52530321224549],[-31.274118568877846,39.45348418140275]]]]}}]}